{"type":"FeatureCollection", "features": [
{"type":"Feature","geometry":{"type":"Polygon","coordinates":[[[103.89618,1.3378],[103.88887,1.33356],[103.88506,1.34086],[103.87725,1.34425],[103.86044,1.3434],[103.85686,1.35551],[103.84992,1.36226],[103.8283,1.36747],[103.82069,1.3612],[103.83384,1.34957],[103.83434,1.34077],[103.82319,1.34068],[103.81807,1.33588],[103.80421,1.34135],[103.79166,1.34927],[103.77783,1.34186],[103.77038,1.34902],[103.76415,1.33936],[103.76483,1.3324],[103.77565,1.32643],[103.77085,1.32127],[103.77226,1.31215],[103.7691,1.29387],[103.75867,1.29922],[103.76073,1.2906],[103.77229,1.28365],[103.76913,1.27831],[103.75649,1.28585],[103.75024,1.28049],[103.77067,1.26824],[103.77687,1.27867],[103.78663,1.27279],[103.77857,1.25918],[103.78551,1.25501],[103.79399,1.26921],[103.82325,1.26307],[103.8067,1.25947],[103.83299,1.2378],[103.83973,1.24043],[103.84842,1.25211],[103.83208,1.26741],[103.85586,1.26564],[103.89324,1.29349],[103.91951,1.30199],[103.90998,1.30555],[103.90522,1.31693],[103.90547,1.32849],[103.89618,1.3378]]]},"properties":{"shapeName":"CENTRAL REGION","shapeISO":"","shapeID":"49756563B71725710252082","shapeGroup":"SGP","shapeType":"ADM1"}},
{"type":"Feature","geometry":{"type":"Polygon","coordinates":[[[103.91951,1.30199],[103.96263,1.31457],[103.98419,1.31666],[104.00095,1.31041],[104.01074,1.31522],[104.02278,1.31592],[104.02116,1.32896],[104.03257,1.35587],[104.028,1.3637],[104.00616,1.37451],[103.99913,1.38893],[103.98105,1.39347],[103.9645,1.38212],[103.94924,1.38299],[103.93478,1.40099],[103.93018,1.40059],[103.92342,1.39739],[103.91433,1.38593],[103.90197,1.35716],[103.89363,1.34835],[103.89618,1.3378],[103.90547,1.32849],[103.90522,1.31693],[103.90998,1.30555],[103.91951,1.30199]]]},"properties":{"shapeName":"EAST REGION","shapeISO":"","shapeID":"49756563B91384122076896","shapeGroup":"SGP","shapeType":"ADM1"}},
{"type":"Feature","geometry":{"type":"MultiPolygon","coordinates":[[[[103.92805,1.41967],[103.94886,1.40995],[103.95844,1.39946],[103.9782,1.40417],[104.00153,1.4028],[103.99919,1.41561],[103.99394,1.41934],[103.97881,1.41763],[103.97043,1.41969],[103.95605,1.4177],[103.93371,1.4281],[103.92805,1.41967]]],[[[103.89618,1.3378],[103.89363,1.34835],[103.90197,1.35716],[103.91433,1.38593],[103.92342,1.39739],[103.93018,1.40059],[103.93087,1.40387],[103.91258,1.42111],[103.89687,1.42062],[103.87749,1.43196],[103.86724,1.42508],[103.86128,1.41046],[103.85239,1.39709],[103.82737,1.39295],[103.81882,1.39434],[103.81777,1.38031],[103.82728,1.37909],[103.8283,1.36747],[103.84992,1.36226],[103.85686,1.35551],[103.86044,1.3434],[103.87725,1.34425],[103.88506,1.34086],[103.88887,1.33356],[103.89618,1.3378]]],[[[104.05431,1.43201],[104.04059,1.44053],[104.02449,1.43713],[104.01077,1.42593],[104.00924,1.41883],[104.02158,1.38873],[104.08051,1.33804],[104.08408,1.34052],[104.07551,1.35482],[104.0746,1.36308],[104.07953,1.38115],[104.08768,1.39622],[104.08823,1.40393],[104.08051,1.41899],[104.06983,1.42709],[104.05431,1.43201]]]]},"properties":{"shapeName":"NORTH-EAST REGION","shapeISO":"","shapeID":"49756563B55738899153180","shapeGroup":"SGP","shapeType":"ADM1"}},
{"type":"Feature","geometry":{"type":"MultiPolygon","coordinates":[[[[103.87242,1.43995],[103.86152,1.4525],[103.85991,1.44298],[103.86563,1.43599],[103.87242,1.43995]]],[[[103.8283,1.36747],[103.82728,1.37909],[103.81777,1.38031],[103.81882,1.39434],[103.82737,1.39295],[103.85239,1.39709],[103.86128,1.41046],[103.86724,1.42508],[103.86536,1.43372],[103.85875,1.4424],[103.85824,1.4548],[103.82754,1.46859],[103.80872,1.47058],[103.80304,1.46903],[103.76427,1.44333],[103.74356,1.44622],[103.74297,1.43871],[103.72835,1.45107],[103.71642,1.45044],[103.69301,1.43367],[103.69865,1.41864],[103.7056,1.41218],[103.72789,1.41117],[103.73933,1.42228],[103.74218,1.40772],[103.75265,1.40352],[103.75332,1.389],[103.77445,1.39029],[103.78064,1.36107],[103.79166,1.34927],[103.80421,1.34135],[103.81807,1.33588],[103.82319,1.34068],[103.83434,1.34077],[103.83384,1.34957],[103.82069,1.3612],[103.8283,1.36747]]]]},"properties":{"shapeName":"NORTH REGION","shapeISO":"","shapeID":"49756563B73572011151336","shapeGroup":"SGP","shapeType":"ADM1"}},
{"type":"Feature","geometry":{"type":"MultiPolygon","coordinates":[[[[103.72345,1.21313],[103.71386,1.21121],[103.70711,1.20472],[103.72662,1.20247],[103.72345,1.21313]]],[[[103.76003,1.21299],[103.7606,1.19499],[103.771,1.18873],[103.78135,1.2002],[103.78042,1.21037],[103.77002,1.20758],[103.76003,1.21299]]],[[[103.79166,1.34927],[103.78064,1.36107],[103.77445,1.39029],[103.75332,1.389],[103.75265,1.40352],[103.74218,1.40772],[103.73933,1.42228],[103.72789,1.41117],[103.7056,1.41218],[103.69865,1.41864],[103.69301,1.43367],[103.67806,1.42912],[103.66805,1.40874],[103.66249,1.40553],[103.66274,1.39252],[103.65271,1.37301],[103.64039,1.3581],[103.63651,1.34543],[103.61782,1.29673],[103.61996,1.28426],[103.61141,1.27699],[103.60578,1.26182],[103.60975,1.26023],[103.6057,1.24368],[103.60694,1.22028],[103.64248,1.21066],[103.65858,1.21717],[103.65692,1.22161],[103.61735,1.2216],[103.61735,1.2292],[103.64984,1.2292],[103.64984,1.23815],[103.61734,1.23815],[103.61734,1.24503],[103.63779,1.24503],[103.64435,1.25398],[103.61734,1.25398],[103.61734,1.26085],[103.64336,1.26085],[103.64044,1.27908],[103.65017,1.28426],[103.64503,1.30062],[103.63454,1.31176],[103.63764,1.3162],[103.66659,1.28868],[103.67434,1.29544],[103.69375,1.30094],[103.70778,1.30206],[103.71185,1.2916],[103.70403,1.29089],[103.68806,1.27275],[103.68423,1.27653],[103.68865,1.29082],[103.6768,1.28521],[103.65373,1.26801],[103.66302,1.24498],[103.67622,1.22871],[103.69039,1.24003],[103.69412,1.25026],[103.71408,1.25902],[103.73114,1.26331],[103.74013,1.2731],[103.72919,1.28095],[103.72452,1.2896],[103.71242,1.29173],[103.71188,1.29961],[103.72965,1.30163],[103.74908,1.2965],[103.75867,1.29922],[103.7691,1.29387],[103.77226,1.31215],[103.77085,1.32127],[103.77565,1.32643],[103.76483,1.3324],[103.76415,1.33936],[103.77038,1.34902],[103.77783,1.34186],[103.79166,1.34927]]]]},"properties":{"shapeName":"WEST REGION","shapeISO":"","shapeID":"49756563B34226909336254","shapeGroup":"SGP","shapeType":"ADM1"}}
]}