{"type":"FeatureCollection", "features": [
{"type":"Feature","geometry":{"type":"Polygon","coordinates":[[[103.85811,1.39111],[103.85239,1.39709],[103.82737,1.39295],[103.81882,1.39434],[103.81777,1.38031],[103.82571,1.37976],[103.8283,1.36747],[103.84762,1.36359],[103.85686,1.35551],[103.86092,1.3689],[103.85836,1.37766],[103.85811,1.39111]]]},"properties":{"shapeName":"ANG MO KIO","shapeISO":"","shapeID":"91842731B45863495904507","shapeGroup":"SGP","shapeType":"ADM2"}},
{"type":"Feature","geometry":{"type":"Polygon","coordinates":[[[103.91951,1.30199],[103.96363,1.31442],[103.9604,1.32137],[103.94898,1.33433],[103.93865,1.33649],[103.92497,1.34859],[103.90759,1.33916],[103.89794,1.34036],[103.89618,1.3378],[103.90547,1.32849],[103.90671,1.31332],[103.90998,1.30555],[103.91951,1.30199]]]},"properties":{"shapeName":"BEDOK","shapeISO":"","shapeID":"91842731B20451595816430","shapeGroup":"SGP","shapeType":"ADM2"}},
{"type":"Feature","geometry":{"type":"Polygon","coordinates":[[[103.8283,1.36747],[103.82069,1.3612],[103.81904,1.35418],[103.83053,1.35241],[103.83652,1.342],[103.84137,1.34508],[103.86044,1.3434],[103.85686,1.35551],[103.84762,1.36359],[103.8283,1.36747]]]},"properties":{"shapeName":"BISHAN","shapeISO":"","shapeID":"91842731B90886149673248","shapeGroup":"SGP","shapeType":"ADM2"}},
{"type":"Feature","geometry":{"type":"Polygon","coordinates":[[[103.68156,1.30919],[103.68388,1.2991],[103.69941,1.29953],[103.70778,1.30206],[103.70983,1.30779],[103.70981,1.31409],[103.71948,1.31431],[103.7196,1.32359],[103.72106,1.33165],[103.7067,1.32777],[103.69651,1.32776],[103.69587,1.31522],[103.68156,1.30919]]]},"properties":{"shapeName":"BOON LAY","shapeISO":"","shapeID":"91842731B95056094425480","shapeGroup":"SGP","shapeType":"ADM2"}},
{"type":"Feature","geometry":{"type":"Polygon","coordinates":[[[103.77038,1.34902],[103.76754,1.36452],[103.76124,1.37967],[103.75381,1.37628],[103.74849,1.36905],[103.7368,1.35614],[103.73726,1.346],[103.74942,1.34127],[103.76461,1.33282],[103.76415,1.33936],[103.77038,1.34902]]]},"properties":{"shapeName":"BUKIT BATOK","shapeISO":"","shapeID":"91842731B5947896014932","shapeGroup":"SGP","shapeType":"ADM2"}},
{"type":"Feature","geometry":{"type":"Polygon","coordinates":[[[103.8232,1.25864],[103.82401,1.25823],[103.83636,1.25481],[103.84248,1.25786],[103.83208,1.26741],[103.8457,1.26684],[103.85156,1.26926],[103.84137,1.27415],[103.835,1.28727],[103.83181,1.29215],[103.81598,1.29411],[103.80895,1.29243],[103.80126,1.28321],[103.80313,1.27893],[103.79921,1.2682],[103.82325,1.26307],[103.8232,1.25864]]]},"properties":{"shapeName":"BUKIT MERAH","shapeISO":"","shapeID":"91842731B76351548746547","shapeGroup":"SGP","shapeType":"ADM2"}},
{"type":"Feature","geometry":{"type":"Polygon","coordinates":[[[103.77038,1.34902],[103.77783,1.34186],[103.79166,1.34927],[103.78026,1.36216],[103.77598,1.37983],[103.77445,1.39029],[103.75513,1.38887],[103.76124,1.37967],[103.76754,1.36452],[103.77038,1.34902]]]},"properties":{"shapeName":"BUKIT PANJANG","shapeISO":"","shapeID":"91842731B93913316180261","shapeGroup":"SGP","shapeType":"ADM2"}},
{"type":"Feature","geometry":{"type":"Polygon","coordinates":[[[103.76461,1.33282],[103.77565,1.32643],[103.7712,1.31873],[103.77891,1.31299],[103.80228,1.30724],[103.80494,1.3149],[103.81336,1.32329],[103.81862,1.33579],[103.8099,1.34174],[103.80373,1.34185],[103.79166,1.34927],[103.77783,1.34186],[103.77038,1.34902],[103.76415,1.33936],[103.76461,1.33282]]]},"properties":{"shapeName":"BUKIT TIMAH","shapeISO":"","shapeID":"91842731B39142455446777","shapeGroup":"SGP","shapeType":"ADM2"}},
{"type":"Feature","geometry":{"type":"Polygon","coordinates":[[[103.81882,1.39434],[103.81453,1.39667],[103.80578,1.41436],[103.80279,1.41621],[103.78322,1.4109],[103.77168,1.40999],[103.77598,1.37983],[103.78026,1.36216],[103.79166,1.34927],[103.80373,1.34185],[103.8099,1.34174],[103.81862,1.33579],[103.82072,1.33973],[103.83599,1.34168],[103.83652,1.342],[103.83053,1.35241],[103.81904,1.35418],[103.82069,1.3612],[103.8283,1.36747],[103.82571,1.37976],[103.81777,1.38031],[103.81882,1.39434]]]},"properties":{"shapeName":"CENTRAL WATER CATCHMENT","shapeISO":"","shapeID":"91842731B42448688128011","shapeGroup":"SGP","shapeType":"ADM2"}},
{"type":"Feature","geometry":{"type":"Polygon","coordinates":[[[103.98382,1.31668],[104.00095,1.31041],[104.01525,1.31572],[104.0322,1.35693],[104.03364,1.3604],[104.00616,1.37451],[103.99913,1.38893],[103.98225,1.39372],[103.9729,1.38772],[103.97855,1.37902],[103.97995,1.37068],[103.96429,1.3527],[103.97092,1.3412],[103.98475,1.33449],[103.97959,1.32221],[103.98382,1.31668]]]},"properties":{"shapeName":"CHANGI","shapeISO":"","shapeID":"91842731B97095495257036","shapeGroup":"SGP","shapeType":"ADM2"}},
{"type":"Feature","geometry":{"type":"Polygon","coordinates":[[[104.01525,1.31572],[104.02278,1.31592],[104.03255,1.3246],[104.02076,1.32566],[104.0322,1.35693],[104.01525,1.31572]]]},"properties":{"shapeName":"CHANGI BAY","shapeISO":"","shapeID":"91842731B40132277078343","shapeGroup":"SGP","shapeType":"ADM2"}},
{"type":"Feature","geometry":{"type":"Polygon","coordinates":[[[103.76124,1.37967],[103.75513,1.38887],[103.75249,1.40383],[103.74602,1.40549],[103.74024,1.39129],[103.74157,1.38661],[103.73267,1.37893],[103.74849,1.36905],[103.75381,1.37628],[103.76124,1.37967]]]},"properties":{"shapeName":"CHOA CHU KANG","shapeISO":"","shapeID":"91842731B43218816718153","shapeGroup":"SGP","shapeType":"ADM2"}},
{"type":"Feature","geometry":{"type":"Polygon","coordinates":[[[103.74942,1.34127],[103.75206,1.32251],[103.74763,1.31375],[103.75728,1.29837],[103.75867,1.29922],[103.7691,1.29387],[103.77226,1.31215],[103.7712,1.31873],[103.77565,1.32643],[103.76461,1.33282],[103.74942,1.34127]]]},"properties":{"shapeName":"CLEMENTI","shapeISO":"","shapeID":"91842731B55304091488522","shapeGroup":"SGP","shapeType":"ADM2"}},
{"type":"Feature","geometry":{"type":"Polygon","coordinates":[[[103.85156,1.26926],[103.85843,1.27804],[103.86473,1.28885],[103.86445,1.29401],[103.85942,1.29978],[103.85231,1.29638],[103.84827,1.29008],[103.84718,1.28543],[103.84137,1.27415],[103.85156,1.26926]]]},"properties":{"shapeName":"DOWNTOWN CORE","shapeISO":"","shapeID":"91842731B3367010827484","shapeGroup":"SGP","shapeType":"ADM2"}},
{"type":"Feature","geometry":{"type":"Polygon","coordinates":[[[103.89618,1.3378],[103.88887,1.33356],[103.86874,1.32782],[103.87592,1.32007],[103.876,1.30879],[103.88375,1.30459],[103.88972,1.30859],[103.9015,1.30954],[103.90671,1.31332],[103.90547,1.32849],[103.89618,1.3378]]]},"properties":{"shapeName":"GEYLANG","shapeISO":"","shapeID":"91842731B99636650083406","shapeGroup":"SGP","shapeType":"ADM2"}},
{"type":"Feature","geometry":{"type":"Polygon","coordinates":[[[103.89794,1.34036],[103.8935,1.34876],[103.90197,1.35716],[103.91005,1.37586],[103.90506,1.38035],[103.89089,1.3803],[103.88008,1.38844],[103.87311,1.38734],[103.87691,1.38245],[103.87644,1.37013],[103.87329,1.36245],[103.88506,1.34086],[103.88887,1.33356],[103.89618,1.3378],[103.89794,1.34036]]]},"properties":{"shapeName":"HOUGANG","shapeISO":"","shapeID":"91842731B57503645074708","shapeGroup":"SGP","shapeType":"ADM2"}},
{"type":"Feature","geometry":{"type":"Polygon","coordinates":[[[103.70983,1.30779],[103.71134,1.29736],[103.71185,1.29736],[103.72965,1.30163],[103.74908,1.2965],[103.75728,1.29837],[103.74763,1.31375],[103.75206,1.32251],[103.74942,1.34127],[103.73726,1.346],[103.736,1.34695],[103.72814,1.35361],[103.72504,1.33696],[103.72601,1.32503],[103.7196,1.32359],[103.71948,1.31431],[103.70981,1.31409],[103.70983,1.30779]]]},"properties":{"shapeName":"JURONG EAST","shapeISO":"","shapeID":"91842731B80607451044134","shapeGroup":"SGP","shapeType":"ADM2"}},
{"type":"Feature","geometry":{"type":"Polygon","coordinates":[[[103.7196,1.32359],[103.72601,1.32503],[103.72504,1.33696],[103.72814,1.35361],[103.71448,1.35718],[103.70625,1.36435],[103.69067,1.34622],[103.67765,1.33808],[103.67493,1.33105],[103.67934,1.32777],[103.69651,1.32776],[103.7067,1.32777],[103.72106,1.33165],[103.7196,1.32359]]]},"properties":{"shapeName":"JURONG WEST","shapeISO":"","shapeID":"91842731B41264252444764","shapeGroup":"SGP","shapeType":"ADM2"}},
{"type":"Feature","geometry":{"type":"Polygon","coordinates":[[[103.86445,1.29401],[103.87767,1.29552],[103.88533,1.29576],[103.88375,1.30459],[103.876,1.30879],[103.87592,1.32007],[103.86874,1.32782],[103.86235,1.33044],[103.85574,1.32109],[103.84634,1.31549],[103.84432,1.31056],[103.84704,1.30814],[103.85447,1.31062],[103.85942,1.29978],[103.86445,1.29401]]]},"properties":{"shapeName":"KALLANG","shapeISO":"","shapeID":"91842731B58578820553466","shapeGroup":"SGP","shapeType":"ADM2"}},
{"type":"Feature","geometry":{"type":"Polygon","coordinates":[[[103.73933,1.42228],[103.74337,1.42665],[103.73848,1.43832],[103.73714,1.43748],[103.737,1.43872],[103.73789,1.44276],[103.72835,1.45107],[103.71957,1.45109],[103.70661,1.44586],[103.69301,1.43367],[103.69865,1.41864],[103.7056,1.41218],[103.72789,1.41117],[103.73933,1.42228]]]},"properties":{"shapeName":"LIM CHU KANG","shapeISO":"","shapeID":"91842731B3963078358447","shapeGroup":"SGP","shapeType":"ADM2"}},
{"type":"Feature","geometry":{"type":"Polygon","coordinates":[[[103.80578,1.41436],[103.82308,1.41341],[103.82685,1.42825],[103.82588,1.43536],[103.8117,1.44428],[103.81053,1.44043],[103.79497,1.42257],[103.78253,1.42655],[103.77127,1.42151],[103.77168,1.40999],[103.78322,1.4109],[103.80279,1.41621],[103.80578,1.41436]]]},"properties":{"shapeName":"MANDAI","shapeISO":"","shapeID":"91842731B55105989995830","shapeGroup":"SGP","shapeType":"ADM2"}},
{"type":"Feature","geometry":{"type":"Polygon","coordinates":[[[103.86473,1.28885],[103.87252,1.28128],[103.88108,1.28472],[103.87548,1.29128],[103.87767,1.29552],[103.86445,1.29401],[103.86473,1.28885]]]},"properties":{"shapeName":"MARINA EAST","shapeISO":"","shapeID":"91842731B30049846243522","shapeGroup":"SGP","shapeType":"ADM2"}},
{"type":"Feature","geometry":{"type":"Polygon","coordinates":[[[103.85843,1.27804],[103.86643,1.27284],[103.87252,1.28128],[103.86473,1.28885],[103.85843,1.27804]]]},"properties":{"shapeName":"MARINA SOUTH","shapeISO":"","shapeID":"91842731B7512274213736","shapeGroup":"SGP","shapeType":"ADM2"}},
{"type":"Feature","geometry":{"type":"Polygon","coordinates":[[[103.90671,1.31332],[103.9015,1.30954],[103.88972,1.30859],[103.88375,1.30459],[103.88533,1.29576],[103.87767,1.29552],[103.87548,1.29128],[103.88108,1.28484],[103.89333,1.29354],[103.91951,1.30199],[103.90998,1.30555],[103.90671,1.31332]]]},"properties":{"shapeName":"MARINE PARADE","shapeISO":"","shapeID":"91842731B26443656493732","shapeGroup":"SGP","shapeType":"ADM2"}},
{"type":"Feature","geometry":{"type":"Polygon","coordinates":[[[103.85231,1.29638],[103.84543,1.30136],[103.84298,1.30001],[103.84136,1.29907],[103.84214,1.29413],[103.84827,1.29008],[103.85231,1.29638]]]},"properties":{"shapeName":"MUSEUM","shapeISO":"","shapeID":"91842731B1249664002017","shapeGroup":"SGP","shapeType":"ADM2"}},
{"type":"Feature","geometry":{"type":"Polygon","coordinates":[[[103.84432,1.31056],[103.83534,1.31737],[103.82776,1.30745],[103.83416,1.30979],[103.84298,1.30001],[103.84543,1.30136],[103.84704,1.30814],[103.84432,1.31056]]]},"properties":{"shapeName":"NEWTON","shapeISO":"","shapeID":"91842731B17079961205151","shapeGroup":"SGP","shapeType":"ADM2"}},
{"type":"Feature","geometry":{"type":"MultiPolygon","coordinates":[[[[104.05408,1.43231],[104.04038,1.44056],[104.02449,1.43713],[104.01077,1.42593],[104.00928,1.41868],[104.02158,1.38873],[104.08051,1.33804],[104.08408,1.34052],[104.07551,1.35482],[104.0746,1.36308],[104.07953,1.38115],[104.08768,1.39622],[104.08823,1.40393],[104.08051,1.41899],[104.06983,1.42709],[104.05408,1.43231]]],[[[103.92805,1.41967],[103.94886,1.40995],[103.95844,1.39946],[103.9782,1.40417],[104.00153,1.4028],[103.99919,1.41561],[103.99394,1.41934],[103.97881,1.41763],[103.97043,1.41969],[103.95605,1.4177],[103.93371,1.4281],[103.92805,1.41967]]]]},"properties":{"shapeName":"NORTH-EASTERN ISLANDS","shapeISO":"","shapeID":"91842731B32069224114640","shapeGroup":"SGP","shapeType":"ADM2"}},
{"type":"Feature","geometry":{"type":"Polygon","coordinates":[[[103.81336,1.32329],[103.83534,1.31737],[103.84432,1.31056],[103.84634,1.31549],[103.85574,1.32109],[103.86235,1.33044],[103.84058,1.32885],[103.83599,1.34168],[103.82072,1.33973],[103.81862,1.33579],[103.81336,1.32329]]]},"properties":{"shapeName":"NOVENA","shapeISO":"","shapeID":"91842731B95000098399892","shapeGroup":"SGP","shapeType":"ADM2"}},
{"type":"Feature","geometry":{"type":"Polygon","coordinates":[[[103.84298,1.30001],[103.83416,1.30979],[103.82776,1.30745],[103.82341,1.30268],[103.8293,1.3046],[103.84136,1.29907],[103.84298,1.30001]]]},"properties":{"shapeName":"ORCHARD","shapeISO":"","shapeID":"91842731B66952184085972","shapeGroup":"SGP","shapeType":"ADM2"}},
{"type":"Feature","geometry":{"type":"Polygon","coordinates":[[[103.84137,1.27415],[103.84718,1.28543],[103.835,1.28727],[103.84137,1.27415]]]},"properties":{"shapeName":"OUTRAM","shapeISO":"","shapeID":"91842731B68671251921610","shapeGroup":"SGP","shapeType":"ADM2"}},
{"type":"Feature","geometry":{"type":"Polygon","coordinates":[[[103.9729,1.38772],[103.9645,1.38212],[103.94924,1.38299],[103.93478,1.40099],[103.93018,1.40059],[103.9199,1.39432],[103.91433,1.38593],[103.9175,1.38236],[103.93189,1.37578],[103.94562,1.36749],[103.958,1.3634],[103.96429,1.3527],[103.97995,1.37068],[103.97855,1.37902],[103.9729,1.38772]]]},"properties":{"shapeName":"PASIR RIS","shapeISO":"","shapeID":"91842731B29273701804010","shapeGroup":"SGP","shapeType":"ADM2"}},
{"type":"Feature","geometry":{"type":"Polygon","coordinates":[[[103.92497,1.34859],[103.93083,1.35942],[103.93189,1.37578],[103.9175,1.38236],[103.91005,1.37586],[103.90197,1.35716],[103.8935,1.34876],[103.89794,1.34036],[103.90759,1.33916],[103.92497,1.34859]]]},"properties":{"shapeName":"PAYA LEBAR","shapeISO":"","shapeID":"91842731B94191282467265","shapeGroup":"SGP","shapeType":"ADM2"}},
{"type":"Feature","geometry":{"type":"Polygon","coordinates":[[[103.69651,1.32776],[103.67934,1.32777],[103.67493,1.33105],[103.66772,1.32799],[103.65587,1.31453],[103.65709,1.31113],[103.65375,1.30103],[103.66659,1.28868],[103.6819,1.298],[103.68156,1.30919],[103.69587,1.31522],[103.69651,1.32776]]]},"properties":{"shapeName":"PIONEER","shapeISO":"","shapeID":"91842731B85295053362711","shapeGroup":"SGP","shapeType":"ADM2"}},
{"type":"Feature","geometry":{"type":"Polygon","coordinates":[[[103.93018,1.40059],[103.93087,1.40387],[103.91258,1.42111],[103.90385,1.42015],[103.89741,1.41491],[103.88681,1.40121],[103.90128,1.39817],[103.91433,1.38593],[103.9199,1.39432],[103.93018,1.40059]]]},"properties":{"shapeName":"PUNGGOL","shapeISO":"","shapeID":"91842731B25786536082373","shapeGroup":"SGP","shapeType":"ADM2"}},
{"type":"Feature","geometry":{"type":"Polygon","coordinates":[[[103.81598,1.29411],[103.8048,1.30048],[103.80228,1.30724],[103.77891,1.31299],[103.7712,1.31873],[103.77226,1.31215],[103.7691,1.29387],[103.75867,1.29922],[103.76073,1.2906],[103.77229,1.28365],[103.76913,1.27831],[103.75649,1.28585],[103.75024,1.28049],[103.77067,1.26824],[103.77687,1.27867],[103.78663,1.27279],[103.77857,1.25918],[103.78551,1.25501],[103.79399,1.26921],[103.79921,1.2682],[103.80313,1.27893],[103.80126,1.28321],[103.80895,1.29243],[103.81598,1.29411]]]},"properties":{"shapeName":"QUEENSTOWN","shapeISO":"","shapeID":"91842731B84648729700061","shapeGroup":"SGP","shapeType":"ADM2"}},
{"type":"Feature","geometry":{"type":"Polygon","coordinates":[[[103.84136,1.29907],[103.8293,1.3046],[103.82341,1.30268],[103.83034,1.29561],[103.84214,1.29413],[103.84136,1.29907]]]},"properties":{"shapeName":"RIVER VALLEY","shapeISO":"","shapeID":"91842731B8043435112496","shapeGroup":"SGP","shapeType":"ADM2"}},
{"type":"Feature","geometry":{"type":"Polygon","coordinates":[[[103.85942,1.29978],[103.85447,1.31062],[103.84704,1.30814],[103.84543,1.30136],[103.85231,1.29638],[103.85942,1.29978]]]},"properties":{"shapeName":"ROCHOR","shapeISO":"","shapeID":"91842731B23122165654060","shapeGroup":"SGP","shapeType":"ADM2"}},
{"type":"Feature","geometry":{"type":"Polygon","coordinates":[[[103.89741,1.41491],[103.89687,1.42062],[103.8789,1.43165],[103.86724,1.42508],[103.86206,1.41859],[103.86089,1.40978],[103.85564,1.40123],[103.88681,1.40121],[103.89741,1.41491]]]},"properties":{"shapeName":"SELETAR","shapeISO":"","shapeID":"91842731B611024205301","shapeGroup":"SGP","shapeType":"ADM2"}},
{"type":"Feature","geometry":{"type":"Polygon","coordinates":[[[103.82588,1.43536],[103.83669,1.44562],[103.83306,1.45139],[103.84781,1.46052],[103.82754,1.46859],[103.8173,1.47077],[103.80304,1.46903],[103.79179,1.46204],[103.80457,1.44808],[103.8117,1.44428],[103.82588,1.43536]]]},"properties":{"shapeName":"SEMBAWANG","shapeISO":"","shapeID":"91842731B12357645351124","shapeGroup":"SGP","shapeType":"ADM2"}},
{"type":"Feature","geometry":{"type":"Polygon","coordinates":[[[103.85811,1.39111],[103.87311,1.38734],[103.88008,1.38844],[103.89089,1.3803],[103.90506,1.38035],[103.91005,1.37586],[103.9175,1.38236],[103.91433,1.38593],[103.90128,1.39817],[103.88681,1.40121],[103.85564,1.40123],[103.85239,1.39709],[103.85811,1.39111]]]},"properties":{"shapeName":"SENGKANG","shapeISO":"","shapeID":"91842731B31374659479500","shapeGroup":"SGP","shapeType":"ADM2"}},
{"type":"Feature","geometry":{"type":"Polygon","coordinates":[[[103.85686,1.35551],[103.86044,1.3434],[103.877,1.34431],[103.88506,1.34086],[103.87329,1.36245],[103.87644,1.37013],[103.87691,1.38245],[103.87311,1.38734],[103.85811,1.39111],[103.85836,1.37766],[103.86092,1.3689],[103.85686,1.35551]]]},"properties":{"shapeName":"SERANGOON","shapeISO":"","shapeID":"91842731B22202511906994","shapeGroup":"SGP","shapeType":"ADM2"}},
{"type":"Feature","geometry":{"type":"MultiPolygon","coordinates":[[[[103.87242,1.43995],[103.86152,1.4525],[103.85991,1.44298],[103.86563,1.43599],[103.87242,1.43995]]],[[[103.83669,1.44562],[103.85282,1.42896],[103.86213,1.42463],[103.86449,1.43184],[103.85504,1.45249],[103.84781,1.46052],[103.83306,1.45139],[103.83669,1.44562]]]]},"properties":{"shapeName":"SIMPANG","shapeISO":"","shapeID":"91842731B78787723804595","shapeGroup":"SGP","shapeType":"ADM2"}},
{"type":"Feature","geometry":{"type":"Polygon","coordinates":[[[103.835,1.28727],[103.84718,1.28543],[103.84827,1.29008],[103.84214,1.29413],[103.83034,1.29561],[103.83181,1.29215],[103.835,1.28727]]]},"properties":{"shapeName":"SINGAPORE RIVER","shapeISO":"","shapeID":"91842731B81262375301476","shapeGroup":"SGP","shapeType":"ADM2"}},
{"type":"Feature","geometry":{"type":"Polygon","coordinates":[[[103.8232,1.25864],[103.8067,1.25947],[103.83258,1.23786],[103.83967,1.24038],[103.84646,1.25321],[103.82615,1.25492],[103.82401,1.25823],[103.8232,1.25864]]]},"properties":{"shapeName":"SOUTHERN ISLANDS","shapeISO":"","shapeID":"91842731B74764311235241","shapeGroup":"SGP","shapeType":"ADM2"}},
{"type":"Feature","geometry":{"type":"Polygon","coordinates":[[[103.85156,1.26926],[103.85586,1.26564],[103.86643,1.27284],[103.85843,1.27804],[103.85156,1.26926]]]},"properties":{"shapeName":"STRAITS VIEW","shapeISO":"","shapeID":"91842731B45925583223677","shapeGroup":"SGP","shapeType":"ADM2"}},
{"type":"Feature","geometry":{"type":"Polygon","coordinates":[[[103.77445,1.39029],[103.77168,1.40999],[103.77127,1.42151],[103.76842,1.44051],[103.7644,1.44345],[103.74396,1.44631],[103.737,1.43872],[103.73714,1.43748],[103.73848,1.43832],[103.74337,1.42665],[103.73933,1.42228],[103.74156,1.41019],[103.74602,1.40549],[103.75249,1.40383],[103.75513,1.38887],[103.77445,1.39029]]]},"properties":{"shapeName":"SUNGEI KADUT","shapeISO":"","shapeID":"91842731B17557865655216","shapeGroup":"SGP","shapeType":"ADM2"}},
{"type":"Feature","geometry":{"type":"Polygon","coordinates":[[[103.96363,1.31442],[103.98382,1.31668],[103.97959,1.32221],[103.98475,1.33449],[103.97092,1.3412],[103.96429,1.3527],[103.958,1.3634],[103.94562,1.36749],[103.93189,1.37578],[103.93083,1.35942],[103.92497,1.34859],[103.93865,1.33649],[103.94898,1.33433],[103.9604,1.32137],[103.96363,1.31442]]]},"properties":{"shapeName":"TAMPINES","shapeISO":"","shapeID":"91842731B27976305021428","shapeGroup":"SGP","shapeType":"ADM2"}},
{"type":"Feature","geometry":{"type":"Polygon","coordinates":[[[103.83181,1.29215],[103.83034,1.29561],[103.82341,1.30268],[103.82776,1.30745],[103.83534,1.31737],[103.81336,1.32329],[103.80494,1.3149],[103.80228,1.30724],[103.8048,1.30048],[103.81598,1.29411],[103.83181,1.29215]]]},"properties":{"shapeName":"TANGLIN","shapeISO":"","shapeID":"91842731B14347449606367","shapeGroup":"SGP","shapeType":"ADM2"}},
{"type":"Feature","geometry":{"type":"Polygon","coordinates":[[[103.74849,1.36905],[103.73267,1.37893],[103.723,1.37084],[103.70625,1.36435],[103.71448,1.35718],[103.72814,1.35361],[103.736,1.34695],[103.73726,1.346],[103.7368,1.35614],[103.74849,1.36905]]]},"properties":{"shapeName":"TENGAH","shapeISO":"","shapeID":"91842731B1982983494790","shapeGroup":"SGP","shapeType":"ADM2"}},
{"type":"Feature","geometry":{"type":"Polygon","coordinates":[[[103.83652,1.342],[103.83599,1.34168],[103.84058,1.32885],[103.86235,1.33044],[103.86874,1.32782],[103.88887,1.33356],[103.88506,1.34086],[103.877,1.34431],[103.86044,1.3434],[103.84137,1.34508],[103.83652,1.342]]]},"properties":{"shapeName":"TOA PAYOH","shapeISO":"","shapeID":"91842731B34318351121161","shapeGroup":"SGP","shapeType":"ADM2"}},
{"type":"Feature","geometry":{"type":"Polygon","coordinates":[[[103.66772,1.32799],[103.65658,1.33467],[103.63879,1.3531],[103.63651,1.34543],[103.61782,1.29673],[103.61996,1.28426],[103.61141,1.27699],[103.60578,1.26182],[103.60975,1.26023],[103.60885,1.24639],[103.6057,1.24368],[103.60571,1.22304],[103.60785,1.21958],[103.64248,1.21066],[103.65858,1.21717],[103.65692,1.22161],[103.61735,1.2216],[103.61735,1.2292],[103.64984,1.2292],[103.64984,1.23815],[103.61734,1.23815],[103.61734,1.24503],[103.63779,1.24503],[103.64435,1.25398],[103.61734,1.25398],[103.61734,1.26085],[103.64336,1.26085],[103.64044,1.27908],[103.65015,1.28449],[103.64503,1.30062],[103.63453,1.31197],[103.63764,1.3162],[103.64977,1.3053],[103.65709,1.31113],[103.65587,1.31453],[103.66772,1.32799]]]},"properties":{"shapeName":"TUAS","shapeISO":"","shapeID":"91842731B34424424591491","shapeGroup":"SGP","shapeType":"ADM2"}},
{"type":"Feature","geometry":{"type":"MultiPolygon","coordinates":[[[[103.72345,1.21313],[103.71386,1.21121],[103.70711,1.20472],[103.72662,1.20247],[103.72345,1.21313]]],[[[103.76003,1.21299],[103.75841,1.2031],[103.7606,1.19499],[103.771,1.18873],[103.78135,1.2002],[103.78042,1.21037],[103.77002,1.20758],[103.76003,1.21299]]],[[[103.71134,1.29736],[103.68806,1.27275],[103.68423,1.27653],[103.6966,1.29117],[103.68424,1.28957],[103.65373,1.26801],[103.66302,1.24498],[103.6688,1.23486],[103.67622,1.22871],[103.69039,1.24003],[103.68591,1.25773],[103.68013,1.26306],[103.68497,1.2684],[103.69041,1.26339],[103.69412,1.25026],[103.71408,1.25902],[103.7225,1.25896],[103.73114,1.26331],[103.73285,1.26923],[103.74007,1.273],[103.72919,1.28095],[103.72452,1.2896],[103.71253,1.29163],[103.71185,1.29736],[103.71134,1.29736]]]]},"properties":{"shapeName":"WESTERN ISLANDS","shapeISO":"","shapeID":"91842731B57994277396791","shapeGroup":"SGP","shapeType":"ADM2"}},
{"type":"Feature","geometry":{"type":"Polygon","coordinates":[[[103.74602,1.40549],[103.74156,1.41019],[103.73933,1.42228],[103.72789,1.41117],[103.7056,1.41218],[103.69865,1.41864],[103.69301,1.43367],[103.67806,1.42912],[103.67483,1.41925],[103.66805,1.40874],[103.66249,1.40553],[103.66274,1.39252],[103.65271,1.37301],[103.64935,1.37264],[103.63879,1.3531],[103.65658,1.33467],[103.66772,1.32799],[103.67493,1.33105],[103.67765,1.33808],[103.69067,1.34622],[103.70625,1.36435],[103.723,1.37084],[103.73267,1.37893],[103.74157,1.38661],[103.74024,1.39129],[103.74602,1.40549]]]},"properties":{"shapeName":"WESTERN WATER CATCHMENT","shapeISO":"","shapeID":"91842731B32884228755734","shapeGroup":"SGP","shapeType":"ADM2"}},
{"type":"Feature","geometry":{"type":"Polygon","coordinates":[[[103.8117,1.44428],[103.80457,1.44808],[103.79179,1.46204],[103.7644,1.44345],[103.76842,1.44051],[103.77127,1.42151],[103.78253,1.42655],[103.79497,1.42257],[103.81053,1.44043],[103.8117,1.44428]]]},"properties":{"shapeName":"WOODLANDS","shapeISO":"","shapeID":"91842731B81114540383723","shapeGroup":"SGP","shapeType":"ADM2"}},
{"type":"Feature","geometry":{"type":"Polygon","coordinates":[[[103.85239,1.39709],[103.85564,1.40123],[103.86089,1.40978],[103.86206,1.41859],[103.86724,1.42508],[103.86213,1.42463],[103.85282,1.42896],[103.83669,1.44562],[103.82588,1.43536],[103.82685,1.42825],[103.82308,1.41341],[103.80578,1.41436],[103.81453,1.39667],[103.81882,1.39434],[103.82737,1.39295],[103.85239,1.39709]]]},"properties":{"shapeName":"YISHUN","shapeISO":"","shapeID":"91842731B29417860839565","shapeGroup":"SGP","shapeType":"ADM2"}}
]}