{"type":"FeatureCollection", "features": [
{"type":"Feature","geometry":{"type":"Polygon","coordinates":[[[105.18476,10.91406],[105.16496,10.93067],[105.11601,10.92466],[105.10233,10.96071],[105.04977,10.93562],[105.01738,10.90381],[105.05193,10.84548],[105.05985,10.79846],[105.08793,10.75921],[105.08273,10.72557],[104.98768,10.67141],[104.93875,10.62608],[104.86226,10.53264],[104.77676,10.52435],[104.81951,10.43862],[104.85269,10.40101],[104.9275,10.35841],[105.05574,10.3147],[105.2151,10.20306],[105.2663,10.2689],[105.30848,10.29658],[105.37615,10.27755],[105.44294,10.29571],[105.45525,10.32943],[105.49178,10.34284],[105.51737,10.39616],[105.56992,10.46307],[105.5692,10.50271],[105.51449,10.56889],[105.43313,10.57526],[105.3723,10.5972],[105.3381,10.66442],[105.3506,10.71559],[105.33563,10.75588],[105.23731,10.81048],[105.21248,10.83558],[105.18476,10.91406]]]},"properties":{"shapeName":"An Giang","shapeISO":"VN-44","shapeID":"63759600B46141220358660","shapeGroup":"VNM","shapeType":"ADM1"}},
{"type":"Feature","geometry":{"type":"Polygon","coordinates":[[[107.00723,10.60597],[107.03103,10.54149],[107.01416,10.49393],[107.05859,10.44084],[107.09965,10.43586],[107.10809,10.40875],[107.06703,10.38994],[107.08281,10.32684],[107.18124,10.40983],[107.25242,10.37698],[107.33679,10.45477],[107.4317,10.46514],[107.51255,10.50575],[107.54592,10.54396],[107.51529,10.62166],[107.4923,10.71964],[107.40534,10.7571],[107.328,10.65693],[107.29461,10.6552],[107.27879,10.70616],[107.18827,10.74415],[107.13115,10.71738],[107.11972,10.66729],[107.07842,10.64138],[107.03536,10.65779],[107.00723,10.60597]]]},"properties":{"shapeName":"Bà Rịa–Vũng Tàu","shapeISO":"VN-43","shapeID":"63759600B21811289888982","shapeGroup":"VNM","shapeType":"ADM1"}},
{"type":"Feature","geometry":{"type":"Polygon","coordinates":[[[106.6114,21.26184],[106.6507,21.23639],[106.88921,21.19653],[106.91059,21.23131],[107.01791,21.22584],[107.06066,21.27429],[107.04641,21.33482],[107.09084,21.33951],[107.10181,21.37252],[107.06166,21.39996],[107.05244,21.45929],[106.96918,21.46683],[106.91097,21.53574],[106.91097,21.56966],[106.82107,21.58919],[106.80376,21.56692],[106.75991,21.57823],[106.74075,21.61796],[106.62765,21.61591],[106.58454,21.57],[106.57607,21.52237],[106.53812,21.47575],[106.49833,21.46375],[106.46222,21.41951],[106.40659,21.4154],[106.39038,21.45381],[106.34875,21.46512],[106.32885,21.49049],[106.24264,21.50557],[106.2209,21.55253],[106.23306,21.60769],[106.14095,21.61728],[106.11148,21.59707],[106.11221,21.47644],[106.09527,21.41299],[106.02379,21.4322],[105.96892,21.34958],[106.01103,21.27204],[106.05044,21.25551],[106.0845,21.28054],[106.13231,21.25429],[106.21746,21.24452],[106.31637,21.20423],[106.35501,21.1969],[106.38644,21.16576],[106.43099,21.22621],[106.46177,21.23231],[106.51221,21.2726],[106.6114,21.26184]]]},"properties":{"shapeName":"Bắc Giang","shapeISO":"VN-54","shapeID":"63759600B37262939240335","shapeGroup":"VNM","shapeType":"ADM1"}},
{"type":"Feature","geometry":{"type":"Polygon","coordinates":[[[105.53104,22.63266],[105.55257,22.5731],[105.58463,22.54316],[105.59199,22.49551],[105.51683,22.3971],[105.51278,22.35622],[105.44057,22.24408],[105.43983,22.21168],[105.49804,22.14071],[105.47373,22.09463],[105.521,22.01101],[105.57319,21.96437],[105.60518,22.00752],[105.68889,22.04533],[105.73346,22.01473],[105.77095,22.00773],[105.79476,21.96182],[105.78509,21.92398],[105.78837,21.81854],[105.83921,21.84487],[105.91363,21.86368],[105.97811,21.90231],[106.01458,21.93888],[106.05658,21.95939],[106.1244,21.92797],[106.138,21.96622],[106.12253,22.05913],[106.1929,22.07483],[106.20285,22.11204],[106.24301,22.1332],[106.26106,22.23009],[106.22201,22.29079],[106.23601,22.32726],[106.19242,22.38438],[106.12402,22.39195],[106.1139,22.50184],[106.06179,22.55372],[105.91658,22.47426],[105.84018,22.50044],[105.79919,22.52801],[105.73848,22.61725],[105.77418,22.69185],[105.74952,22.73084],[105.66967,22.7167],[105.55633,22.6364],[105.53104,22.63266]]]},"properties":{"shapeName":"Bắc Kạn","shapeISO":"VN-53","shapeID":"63759600B29118141744967","shapeGroup":"VNM","shapeType":"ADM1"}},
{"type":"Feature","geometry":{"type":"Polygon","coordinates":[[[105.54956,9.61505],[105.40252,9.63356],[105.37879,9.62057],[105.33309,9.61363],[105.31991,9.54691],[105.29003,9.51744],[105.26542,9.42556],[105.28036,9.38567],[105.27948,9.33018],[105.23378,9.2582],[105.27772,9.19487],[105.25597,9.14781],[105.27284,9.12394],[105.39883,9.08784],[105.44127,9.05877],[105.48544,9.11227],[105.60187,9.16669],[105.65417,9.18335],[105.83762,9.26228],[105.82403,9.346],[105.85328,9.37097],[105.85047,9.41037],[105.79253,9.38984],[105.77566,9.42368],[105.70029,9.39816],[105.66655,9.40759],[105.61255,9.44477],[105.54956,9.46308],[105.54956,9.61505]]]},"properties":{"shapeName":"Bạc Liêu","shapeISO":"VN-55","shapeID":"63759600B49404698723526","shapeGroup":"VNM","shapeType":"ADM1"}},
{"type":"Feature","geometry":{"type":"Polygon","coordinates":[[[106.01103,21.27204],[105.96958,21.2498],[105.95943,21.14275],[105.96742,21.11092],[106.02862,21.09449],[106.04748,21.05107],[106.03031,21.01812],[106.15815,21.01664],[106.19897,20.97762],[106.21516,21.0006],[106.3493,21.02603],[106.38996,21.10818],[106.38644,21.16576],[106.35501,21.1969],[106.31637,21.20423],[106.21746,21.24452],[106.13231,21.25429],[106.0845,21.28054],[106.05044,21.25551],[106.01103,21.27204]]]},"properties":{"shapeName":"Bắc Ninh","shapeISO":"VN-56","shapeID":"63759600B40382966221261","shapeGroup":"VNM","shapeType":"ADM1"}},
{"type":"Feature","geometry":{"type":"Polygon","coordinates":[[[106.66332,10.25425],[106.52427,10.27319],[106.44497,10.29201],[106.3921,10.31359],[106.31673,10.31968],[106.20537,10.31082],[106.1743,10.29312],[106.07495,10.28249],[106.03305,10.29722],[106.03666,10.25325],[106.13204,10.22559],[106.15968,10.19498],[106.21305,10.14962],[106.25795,10.08995],[106.28073,10.05618],[106.35048,9.98971],[106.42135,9.95703],[106.50965,9.89941],[106.5617,9.83868],[106.6188,9.81719],[106.65659,9.82758],[106.68471,9.89425],[106.66713,9.92802],[106.61968,9.95745],[106.66882,9.9803],[106.69413,10.01685],[106.7335,10.03347],[106.78243,10.08276],[106.79312,10.11432],[106.78412,10.17854],[106.711,10.21508],[106.66332,10.25425]]]},"properties":{"shapeName":"Bến Tre","shapeISO":"VN-50","shapeID":"63759600B71233846988018","shapeGroup":"VNM","shapeType":"ADM1"}},
{"type":"Feature","geometry":{"type":"Polygon","coordinates":[[[108.68722,14.56488],[108.70174,14.52324],[108.65552,14.48822],[108.67805,14.44163],[108.68798,14.36063],[108.71166,14.29996],[108.72273,14.15338],[108.79605,14.04116],[108.79758,14.01115],[108.77314,13.94037],[108.81013,13.88531],[108.85727,13.77001],[108.83996,13.68829],[108.86443,13.61523],[108.85371,13.56835],[108.86822,13.55016],[108.91443,13.55276],[108.94612,13.53531],[109.00684,13.53717],[109.09619,13.5947],[109.16913,13.67894],[109.19815,13.69516],[109.23232,13.67801],[109.21985,13.75232],[109.29488,13.76561],[109.30172,13.83966],[109.28445,13.89589],[109.24932,13.94964],[109.25314,14.03449],[109.21301,14.1214],[109.22865,14.13775],[109.20568,14.18751],[109.19509,14.27442],[109.12865,14.40206],[109.1317,14.43867],[109.08015,14.57102],[109.07404,14.65601],[109.08875,14.65959],[109.02791,14.70228],[108.95631,14.71613],[108.83996,14.68612],[108.82087,14.62493],[108.75166,14.61165],[108.68722,14.56488]]]},"properties":{"shapeName":"Bình Định","shapeISO":"VN-31","shapeID":"63759600B9901642676381","shapeGroup":"VNM","shapeType":"ADM1"}},
{"type":"Feature","geometry":{"type":"Polygon","coordinates":[[[106.44641,11.47268],[106.39885,11.41112],[106.37073,11.34606],[106.36292,11.2793],[106.38164,11.22034],[106.42771,11.15148],[106.4682,11.12723],[106.50367,11.12984],[106.52213,11.06258],[106.60034,11.03153],[106.63374,10.95647],[106.69174,10.87536],[106.73216,10.86327],[106.80686,10.88485],[106.81129,10.90977],[106.77435,10.92455],[106.76732,10.98235],[106.81126,11.01945],[106.90969,11.01945],[106.93693,11.05654],[106.94923,11.10742],[106.93693,11.16433],[106.90002,11.19278],[106.94947,11.30541],[106.9079,11.32025],[106.85571,11.29095],[106.84455,11.33719],[106.783,11.34109],[106.76331,11.36977],[106.79481,11.42049],[106.77231,11.4453],[106.74531,11.41057],[106.65195,11.32014],[106.60864,11.34275],[106.57208,11.33723],[106.54902,11.37804],[106.56589,11.42766],[106.4714,11.47286],[106.44641,11.47268]]]},"properties":{"shapeName":"Bình Dương","shapeISO":"VN-57","shapeID":"63759600B4649941622975","shapeGroup":"VNM","shapeType":"ADM1"}},
{"type":"Feature","geometry":{"type":"Polygon","coordinates":[[[106.94947,11.30541],[107.0336,11.3574],[107.07139,11.40909],[107.08369,11.47025],[107.14081,11.49867],[107.31362,11.54642],[107.29329,11.56007],[107.2899,11.60974],[107.26111,11.64196],[107.28389,11.7253],[107.39827,11.76751],[107.43129,11.85427],[107.40609,11.88105],[107.35222,11.98265],[107.25185,12.04087],[107.24012,12.07019],[107.25272,12.13009],[107.2413,12.22274],[107.21155,12.28469],[107.16827,12.28181],[107.11812,12.21533],[107.04217,12.13334],[106.9529,12.07245],[106.86615,12.06119],[106.82223,12.07844],[106.77328,12.06013],[106.73332,11.98057],[106.70884,11.96718],[106.49287,11.9693],[106.45831,11.98444],[106.42339,11.95592],[106.46299,11.88019],[106.42636,11.7857],[106.42254,11.72884],[106.44744,11.66808],[106.46011,11.61975],[106.48747,11.58061],[106.47955,11.52348],[106.43239,11.51643],[106.44641,11.47268],[106.4714,11.47286],[106.56589,11.42766],[106.54902,11.37804],[106.57208,11.33723],[106.60864,11.34275],[106.65195,11.32014],[106.74531,11.41057],[106.77231,11.4453],[106.79481,11.42049],[106.76331,11.36977],[106.783,11.34109],[106.84455,11.33719],[106.85571,11.29095],[106.9079,11.32025],[106.94947,11.30541]]]},"properties":{"shapeName":"Bình Phước","shapeISO":"VN-58","shapeID":"63759600B13042736323456","shapeGroup":"VNM","shapeType":"ADM1"}},
{"type":"Feature","geometry":{"type":"Polygon","coordinates":[[[107.54592,10.54396],[107.6667,10.6064],[107.74482,10.6294],[107.82801,10.69186],[107.91069,10.70567],[107.98212,10.69075],[108.02768,10.73275],[108.0648,10.87639],[108.09742,10.90677],[108.1576,10.92168],[108.21385,10.94764],[108.25547,10.94929],[108.29878,10.91837],[108.3404,10.95868],[108.35333,11.0012],[108.38652,11.02549],[108.47257,11.0564],[108.49957,11.10056],[108.55075,11.15574],[108.66493,11.18002],[108.70992,11.15685],[108.74761,11.21037],[108.77685,11.28539],[108.85226,11.31352],[108.84242,11.3462],[108.77964,11.35928],[108.74207,11.44796],[108.68621,11.45523],[108.64617,11.53709],[108.57646,11.55236],[108.54115,11.50993],[108.50319,11.52605],[108.40448,11.52202],[108.35133,11.509],[108.2909,11.51613],[108.26148,11.4935],[108.25768,11.46311],[108.30324,11.41195],[108.26464,11.36853],[108.19493,11.31101],[108.12467,11.28539],[108.06372,11.24528],[108.04145,11.25779],[108.02483,11.3282],[107.86696,11.37101],[107.76446,11.3828],[107.68378,11.34092],[107.61766,11.36884],[107.58096,11.39706],[107.53452,11.35712],[107.53101,11.27467],[107.49234,11.2333],[107.44049,11.1514],[107.44928,11.11432],[107.39831,11.04619],[107.42379,11.03066],[107.5231,10.99875],[107.54117,10.94432],[107.54117,10.85651],[107.55242,10.82668],[107.51192,10.77917],[107.4923,10.71964],[107.51529,10.62166],[107.54592,10.54396]]]},"properties":{"shapeName":"Bình Thuận","shapeISO":"VN-40","shapeID":"63759600B31473825670333","shapeGroup":"VNM","shapeType":"ADM1"}},
{"type":"Feature","geometry":{"type":"Polygon","coordinates":[[[105.26542,9.42556],[105.20422,9.45642],[105.05011,9.57291],[104.99162,9.59343],[104.91344,9.58954],[104.87575,9.5535],[104.84088,9.57235],[104.81895,9.23831],[104.79814,9.14171],[104.80545,8.92452],[104.77789,8.82449],[104.79814,8.78781],[104.87013,8.81727],[104.87857,8.79726],[104.81726,8.76835],[104.79026,8.69108],[104.79139,8.65716],[104.71715,8.64604],[104.7149,8.61268],[104.76383,8.59154],[104.82738,8.57875],[104.92806,8.58098],[104.98149,8.59711],[105.10804,8.65772],[105.15585,8.69052],[105.21322,8.75612],[105.29871,8.81393],[105.34258,8.87229],[105.38983,8.96508],[105.39883,8.99841],[105.44127,9.05877],[105.39883,9.08784],[105.27284,9.12394],[105.25597,9.14781],[105.27772,9.19487],[105.23378,9.2582],[105.27948,9.33018],[105.28036,9.38567],[105.26542,9.42556]]]},"properties":{"shapeName":"Cà Mau","shapeISO":"VN-59","shapeID":"63759600B81181225404594","shapeGroup":"VNM","shapeType":"ADM1"}},
{"type":"Feature","geometry":{"type":"Polygon","coordinates":[[[105.2151,10.20306],[105.26366,10.18155],[105.29354,10.14349],[105.33397,10.12533],[105.35506,10.09158],[105.44294,10.01197],[105.46315,9.98255],[105.54877,9.91041],[105.57213,9.90291],[105.60728,9.94273],[105.65122,9.90984],[105.73471,9.89945],[105.76107,9.91849],[105.8305,9.90291],[105.87225,9.90582],[105.9028,9.94141],[105.81897,10.01741],[105.79703,10.05285],[105.68499,10.1393],[105.67573,10.17123],[105.63365,10.2101],[105.59586,10.28793],[105.53434,10.32943],[105.49178,10.34284],[105.45525,10.32943],[105.44294,10.29571],[105.37615,10.27755],[105.30848,10.29658],[105.2663,10.2689],[105.2151,10.20306]]]},"properties":{"shapeName":"Cần Thơ","shapeISO":"VN-CT","shapeID":"63759600B21046589863912","shapeGroup":"VNM","shapeType":"ADM1"}},
{"type":"Feature","geometry":{"type":"Polygon","coordinates":[[[106.19242,22.38438],[106.22521,22.42797],[106.25253,22.43077],[106.3431,22.37324],[106.36283,22.34703],[106.40432,22.3358],[106.47971,22.33393],[106.52019,22.37324],[106.5809,22.39524],[106.56977,22.43685],[106.5981,22.46818],[106.62138,22.56727],[106.67349,22.56259],[106.72763,22.58829],[106.74787,22.63967],[106.7848,22.69009],[106.78379,22.7251],[106.83844,22.80301],[106.79037,22.8142],[106.71701,22.85757],[106.64212,22.87528],[106.62745,22.90791],[106.55712,22.93168],[106.43923,22.87808],[106.35221,22.85757],[106.28196,22.88619],[106.24537,22.95449],[106.1751,22.9852],[106.06306,22.99235],[106.01352,22.98192],[105.99571,22.94197],[105.92318,22.93958],[105.88335,22.92437],[105.81955,23.0004],[105.7263,23.06924],[105.65348,23.07792],[105.58366,23.07373],[105.56601,23.11898],[105.51839,23.10584],[105.4941,23.02857],[105.46071,23.00808],[105.37925,22.98898],[105.36458,22.94473],[105.30487,22.91444],[105.31297,22.84638],[105.34484,22.81747],[105.39999,22.80488],[105.44958,22.76756],[105.48196,22.71436],[105.47842,22.67515],[105.50153,22.63625],[105.53104,22.63266],[105.55633,22.6364],[105.66967,22.7167],[105.74952,22.73084],[105.77418,22.69185],[105.73848,22.61725],[105.79919,22.52801],[105.84018,22.50044],[105.91658,22.47426],[106.06179,22.55372],[106.1139,22.50184],[106.12402,22.39195],[106.19242,22.38438]]]},"properties":{"shapeName":"Cao Bằng","shapeISO":"VN-04","shapeID":"63759600B11108179203280","shapeGroup":"VNM","shapeType":"ADM1"}},
{"type":"Feature","geometry":{"type":"Polygon","coordinates":[[[106.64238,8.70331],[106.64182,8.75279],[106.55521,8.69497],[106.5389,8.63603],[106.61989,8.63826],[106.60808,8.67217],[106.64238,8.70331]]]},"properties":{"shapeName":"Côn Đảo","shapeISO":"VN-43","shapeID":"63759600B5991530625500","shapeGroup":"VNM","shapeType":"ADM1"}},
{"type":"Feature","geometry":{"type":"Polygon","coordinates":[[[108.29226,15.97147],[108.25065,16.05894],[108.27139,16.10227],[108.32274,16.11098],[108.25569,16.15079],[108.22261,16.12603],[108.23851,16.09734],[108.20521,16.07856],[108.16762,16.08537],[108.13154,16.12706],[108.15795,16.20156],[108.11901,16.18545],[108.04346,16.18081],[107.99679,16.2065],[107.97161,16.1934],[107.88718,16.1924],[107.86149,16.10022],[107.8194,16.05812],[107.89583,16.05325],[107.92536,16.02906],[107.96496,16.05067],[108.01262,16.001],[107.99181,15.93743],[108.05457,15.92097],[108.0925,15.94033],[108.17406,15.93291],[108.22507,15.95647],[108.29226,15.97147]]]},"properties":{"shapeName":"Đà Nẵng","shapeISO":"VN-DN","shapeID":"63759600B8583399541445","shapeGroup":"VNM","shapeType":"ADM1"}},
{"type":"Feature","geometry":{"type":"Polygon","coordinates":[[[107.62265,13.31844],[107.59998,13.29941],[107.52326,13.1322],[107.49204,13.04029],[107.48185,12.95628],[107.50358,12.86497],[107.55178,12.79547],[107.62781,12.80341],[107.70724,12.7809],[107.79413,12.76634],[107.86541,12.7915],[107.8851,12.75707],[107.96045,12.69284],[108.0487,12.60606],[108.05821,12.58089],[107.94755,12.5736],[107.91633,12.54776],[107.93137,12.51974],[107.97264,12.51719],[107.99958,12.47096],[107.96265,12.40477],[108.00002,12.39713],[108.03695,12.35554],[108.07735,12.35045],[108.11298,12.32668],[108.1334,12.2715],[108.09299,12.23031],[108.12218,12.17884],[108.24115,12.17001],[108.33847,12.22182],[108.39832,12.22681],[108.47729,12.27681],[108.50121,12.2673],[108.61271,12.26703],[108.6522,12.28496],[108.68281,12.32113],[108.69279,12.35777],[108.68139,12.3928],[108.71226,12.45879],[108.75035,12.47047],[108.76926,12.49897],[108.85323,12.45526],[108.87798,12.46748],[108.87659,12.5101],[108.89383,12.57334],[108.86894,12.60148],[108.90459,12.62745],[108.91328,12.68001],[108.998,12.68425],[109.01625,12.71407],[108.98139,12.81123],[108.87409,12.81489],[108.84859,12.85713],[108.79307,12.86918],[108.76871,12.92574],[108.71421,12.95266],[108.6735,12.99627],[108.59653,13.02592],[108.53149,13.03871],[108.50524,13.08986],[108.46765,13.12881],[108.46765,13.16265],[108.41801,13.2437],[108.38478,13.27306],[108.34813,13.34478],[108.31567,13.36447],[108.1015,13.43175],[108.01352,13.3889],[107.94345,13.39301],[107.90466,13.41096],[107.82583,13.41111],[107.78156,13.38601],[107.67927,13.37384],[107.62265,13.31844]]]},"properties":{"shapeName":"Đắk Lắk","shapeISO":"VN-33","shapeID":"63759600B97182540787332","shapeGroup":"VNM","shapeType":"ADM1"}},
{"type":"Feature","geometry":{"type":"Polygon","coordinates":[[[107.39827,11.76751],[107.4591,11.76666],[107.50168,11.79686],[107.57119,11.80621],[107.65939,11.87935],[107.68242,11.91294],[107.70935,11.91421],[107.72108,11.8734],[107.77279,11.84746],[107.83469,11.87575],[107.88141,11.87275],[107.89364,11.8156],[108.00057,11.79281],[108.07605,11.83386],[108.09343,11.86745],[108.08343,11.90231],[108.0326,11.95035],[108.0326,11.97117],[107.98264,12.04937],[107.95527,12.06636],[107.99784,12.11012],[108.07996,12.11607],[108.12218,12.17884],[108.09299,12.23031],[108.1334,12.2715],[108.11298,12.32668],[108.07735,12.35045],[108.03695,12.35554],[108.00002,12.39713],[107.96265,12.40477],[107.99958,12.47096],[107.97264,12.51719],[107.93137,12.51974],[107.91633,12.54776],[107.94755,12.5736],[108.05821,12.58089],[108.0487,12.60606],[107.96045,12.69284],[107.8851,12.75707],[107.86541,12.7915],[107.79413,12.76634],[107.70724,12.7809],[107.62781,12.80341],[107.55178,12.79547],[107.55685,12.70375],[107.57076,12.68425],[107.56598,12.63381],[107.58683,12.55579],[107.57336,12.48708],[107.5473,12.42344],[107.54034,12.35851],[107.4491,12.29103],[107.42043,12.2456],[107.39827,12.24815],[107.36742,12.30291],[107.32528,12.32414],[107.26522,12.31403],[107.21155,12.28469],[107.2413,12.22274],[107.25272,12.13009],[107.24012,12.07019],[107.25185,12.04087],[107.35222,11.98265],[107.40609,11.88105],[107.43129,11.85427],[107.39827,11.76751]]]},"properties":{"shapeName":"Đắk Nông","shapeISO":"VN-72","shapeID":"63759600B22683796323846","shapeGroup":"VNM","shapeType":"ADM1"}},
{"type":"Feature","geometry":{"type":"Polygon","coordinates":[[[102.32507,22.54148],[102.23072,22.4266],[102.18215,22.43019],[102.14588,22.40145],[102.19672,22.30772],[102.23234,22.28315],[102.24594,22.2385],[102.28156,22.22441],[102.37482,22.16025],[102.38356,22.13805],[102.43181,22.11676],[102.48297,22.04234],[102.50402,21.97929],[102.6193,21.90961],[102.66528,21.78248],[102.65111,21.7289],[102.67591,21.65933],[102.75382,21.6598],[102.82415,21.73219],[102.81909,21.84119],[102.84996,21.83884],[102.87374,21.70258],[102.97645,21.73313],[102.99061,21.68425],[102.9977,21.59865],[102.96936,21.54407],[102.9213,21.50359],[102.89296,21.45604],[102.94255,21.45275],[102.89347,21.35853],[102.89648,21.30449],[102.82136,21.25983],[102.91106,21.23086],[102.91332,21.16866],[102.93599,21.15538],[102.97031,21.07533],[103.04091,21.04571],[103.0762,20.96772],[103.12089,20.90209],[103.21729,20.89601],[103.26231,20.89886],[103.29722,20.98344],[103.2785,21.04768],[103.29419,21.09725],[103.34428,21.08639],[103.38324,21.05807],[103.41865,21.06798],[103.39437,21.12227],[103.43788,21.18597],[103.43839,21.28595],[103.42422,21.3147],[103.38324,21.32979],[103.33752,21.41637],[103.4324,21.42149],[103.45733,21.45254],[103.45895,21.49111],[103.52857,21.53118],[103.56937,21.63536],[103.60046,21.67118],[103.59592,21.70066],[103.54464,21.77308],[103.54464,21.8008],[103.5158,21.86608],[103.48645,21.89707],[103.50258,21.96357],[103.46251,21.99821],[103.47838,22.01893],[103.41167,22.08135],[103.39613,22.13445],[103.32489,22.13565],[103.25236,22.03664],[103.18727,22.07295],[103.11894,22.07415],[103.05622,22.04946],[102.96088,22.02986],[102.93016,22.06905],[102.84467,22.05374],[102.77246,22.08015],[102.73872,22.13721],[102.74991,22.18807],[102.72857,22.23201],[102.68147,22.24779],[102.67791,22.17464],[102.62157,22.18873],[102.62318,22.21152],[102.56878,22.25139],[102.52133,22.25158],[102.45708,22.34956],[102.39325,22.40494],[102.39139,22.45551],[102.34932,22.49266],[102.32507,22.54148]]]},"properties":{"shapeName":"Điện Biên","shapeISO":"VN-71","shapeID":"63759600B72990231521734","shapeGroup":"VNM","shapeType":"ADM1"}},
{"type":"Feature","geometry":{"type":"Polygon","coordinates":[[[107.4923,10.71964],[107.51192,10.77917],[107.55242,10.82668],[107.54117,10.85651],[107.54117,10.94432],[107.5231,10.99875],[107.42379,11.03066],[107.39831,11.04619],[107.44928,11.11432],[107.44049,11.1514],[107.49234,11.2333],[107.53101,11.27467],[107.53452,11.35712],[107.49016,11.39892],[107.48004,11.42931],[107.4348,11.43304],[107.46517,11.47924],[107.43543,11.50631],[107.38461,11.51722],[107.34654,11.54757],[107.31362,11.54642],[107.14081,11.49867],[107.08369,11.47025],[107.07139,11.40909],[107.0336,11.3574],[106.94947,11.30541],[106.90002,11.19278],[106.93693,11.16433],[106.94923,11.10742],[106.93693,11.05654],[106.90969,11.01945],[106.81126,11.01945],[106.76732,10.98235],[106.77435,10.92455],[106.81129,10.90977],[106.84114,10.88312],[106.8429,10.85119],[106.87014,10.82098],[106.87014,10.77868],[106.84729,10.75365],[106.72865,10.68888],[106.75326,10.64225],[106.81653,10.61461],[106.87981,10.6077],[106.93429,10.55846],[106.97032,10.54463],[107.00723,10.60597],[107.03536,10.65779],[107.07842,10.64138],[107.11972,10.66729],[107.13115,10.71738],[107.18827,10.74415],[107.27879,10.70616],[107.29461,10.6552],[107.328,10.65693],[107.40534,10.7571],[107.4923,10.71964]]]},"properties":{"shapeName":"Đồng Nai","shapeISO":"VN-39","shapeID":"63759600B12839449494422","shapeGroup":"VNM","shapeType":"ADM1"}},
{"type":"Feature","geometry":{"type":"Polygon","coordinates":[[[105.49178,10.34284],[105.53434,10.32943],[105.59586,10.28793],[105.63365,10.2101],[105.67573,10.17123],[105.68499,10.1393],[105.71895,10.21838],[105.76498,10.2184],[105.8156,10.17578],[105.91121,10.21286],[105.89474,10.27769],[105.83377,10.31082],[105.80462,10.35226],[105.82693,10.39475],[105.87839,10.45834],[105.92631,10.49346],[105.92728,10.53856],[105.90727,10.54038],[105.84315,10.63603],[105.76666,10.67362],[105.68848,10.7648],[105.61132,10.8324],[105.58612,10.88967],[105.50801,10.95294],[105.44382,10.96531],[105.40557,10.94432],[105.33752,10.87695],[105.21097,10.91671],[105.18476,10.91406],[105.21248,10.83558],[105.23731,10.81048],[105.33563,10.75588],[105.3506,10.71559],[105.3381,10.66442],[105.3723,10.5972],[105.43313,10.57526],[105.51449,10.56889],[105.5692,10.50271],[105.56992,10.46307],[105.51737,10.39616],[105.49178,10.34284]]]},"properties":{"shapeName":"Đồng Tháp","shapeISO":"VN-45","shapeID":"63759600B81354309972615","shapeGroup":"VNM","shapeType":"ADM1"}},
{"type":"Feature","geometry":{"type":"Polygon","coordinates":[[[108.68722,14.56488],[108.6311,14.61491],[108.53104,14.58728],[108.48483,14.59689],[108.45848,14.63163],[108.42717,14.58654],[108.44512,14.54959],[108.38326,14.49673],[108.3332,14.43166],[108.27528,14.41983],[108.2264,14.39687],[108.16042,14.38551],[108.12512,14.36211],[108.11252,14.32179],[108.02202,14.26998],[107.98154,14.26961],[107.91357,14.30144],[107.8792,14.287],[107.84951,14.24299],[107.77732,14.22506],[107.7081,14.22853],[107.68304,14.16953],[107.67111,14.10762],[107.59653,14.0428],[107.55178,14.03759],[107.52314,13.99475],[107.46825,13.97159],[107.46884,13.85808],[107.44438,13.79609],[107.5124,13.75784],[107.56252,13.67148],[107.58161,13.60885],[107.60965,13.56014],[107.62576,13.46731],[107.62265,13.31844],[107.67927,13.37384],[107.78156,13.38601],[107.82583,13.41111],[107.90466,13.41096],[107.94345,13.39301],[108.01352,13.3889],[108.1015,13.43175],[108.31567,13.36447],[108.34813,13.34478],[108.38478,13.27306],[108.41801,13.2437],[108.46765,13.16265],[108.46765,13.12881],[108.50524,13.08986],[108.53149,13.03871],[108.59653,13.02592],[108.6735,12.99627],[108.75882,13.05498],[108.76359,13.13576],[108.84175,13.16772],[108.87815,13.2624],[108.87099,13.29492],[108.83424,13.35407],[108.80789,13.37302],[108.79338,13.4811],[108.73533,13.48927],[108.72006,13.51897],[108.73915,13.5561],[108.79529,13.58617],[108.85371,13.56835],[108.86443,13.61523],[108.83996,13.68829],[108.85727,13.77001],[108.81013,13.88531],[108.77314,13.94037],[108.79758,14.01115],[108.79605,14.04116],[108.72273,14.15338],[108.71166,14.29996],[108.68798,14.36063],[108.67805,14.44163],[108.65552,14.48822],[108.70174,14.52324],[108.68722,14.56488]]]},"properties":{"shapeName":"Gia Lai","shapeISO":"VN-30","shapeID":"63759600B15361955936842","shapeGroup":"VNM","shapeType":"ADM1"}},
{"type":"Feature","geometry":{"type":"Polygon","coordinates":[[[105.56601,23.11898],[105.57961,23.14995],[105.55584,23.1862],[105.50319,23.20949],[105.47048,23.26453],[105.4326,23.30201],[105.40928,23.28922],[105.36136,23.31837],[105.34353,23.37214],[105.29981,23.38318],[105.28509,23.34475],[105.22914,23.2787],[105.16826,23.28442],[105.11615,23.25096],[105.08427,23.2663],[104.99624,23.20958],[104.95019,23.16726],[104.8996,23.17935],[104.85862,23.11654],[104.81156,23.1305],[104.83737,22.982],[104.86418,22.93913],[104.78475,22.89673],[104.74579,22.8571],[104.7382,22.82773],[104.68558,22.8198],[104.64763,22.83332],[104.59906,22.8212],[104.56819,22.84918],[104.52063,22.78668],[104.39718,22.70036],[104.36176,22.69196],[104.38048,22.66068],[104.41337,22.65694],[104.467,22.60838],[104.47156,22.57521],[104.42906,22.57054],[104.42298,22.52801],[104.45992,22.50137],[104.45385,22.46538],[104.47257,22.42235],[104.51305,22.40037],[104.5768,22.34703],[104.58647,22.25049],[104.62399,22.27037],[104.72015,22.25445],[104.72575,22.19959],[104.76627,22.16729],[104.84887,22.18551],[104.89701,22.18963],[104.90921,22.31474],[104.99219,22.3124],[105.00737,22.27027],[105.04279,22.28572],[105.08579,22.36013],[105.11429,22.45922],[105.10911,22.49303],[105.13274,22.54389],[105.11969,22.57661],[105.15966,22.63033],[105.15511,22.68636],[105.24972,22.65694],[105.28615,22.61818],[105.3666,22.64247],[105.44958,22.60791],[105.50153,22.63625],[105.47842,22.67515],[105.48196,22.71436],[105.44958,22.76756],[105.39999,22.80488],[105.34484,22.81747],[105.31297,22.84638],[105.30487,22.91444],[105.36458,22.94473],[105.37925,22.98898],[105.46071,23.00808],[105.4941,23.02857],[105.51839,23.10584],[105.56601,23.11898]]]},"properties":{"shapeName":"Hà Giang","shapeISO":"VN-03","shapeID":"63759600B80209413202681","shapeGroup":"VNM","shapeType":"ADM1"}},
{"type":"Feature","geometry":{"type":"Polygon","coordinates":[[[105.93209,20.36579],[105.98418,20.40654],[106.02023,20.40065],[106.07557,20.43365],[106.11036,20.47057],[106.15605,20.46939],[106.19629,20.49217],[106.23194,20.4781],[106.22438,20.54124],[106.1673,20.61814],[106.11832,20.60874],[106.07343,20.69727],[106.03865,20.65486],[105.99149,20.67815],[105.95285,20.64812],[105.89128,20.64689],[105.87163,20.63096],[105.85395,20.56658],[105.81433,20.5461],[105.8722,20.46827],[105.88438,20.39809],[105.93209,20.36579]]]},"properties":{"shapeName":"Hà Nam","shapeISO":"VN-63","shapeID":"63759600B38291039937725","shapeGroup":"VNM","shapeType":"ADM1"}},
{"type":"Feature","geometry":{"type":"Polygon","coordinates":[[[105.96892,21.34958],[105.91768,21.38967],[105.85321,21.39893],[105.85284,21.35879],[105.79242,21.28946],[105.80458,21.2517],[105.8591,21.21117],[105.83516,21.14006],[105.66752,21.18713],[105.62847,21.16205],[105.58389,21.15655],[105.52641,21.18507],[105.49989,21.28019],[105.4332,21.29564],[105.39967,21.27024],[105.41073,21.22148],[105.36209,21.18507],[105.36394,21.12356],[105.38383,21.08713],[105.35952,21.04003],[105.39962,21.00331],[105.47943,21.02785],[105.5135,21.02359],[105.58433,20.96999],[105.59506,20.92038],[105.62779,20.89407],[105.63557,20.83516],[105.69057,20.81234],[105.70103,20.74662],[105.71674,20.72405],[105.71381,20.6213],[105.78423,20.59462],[105.81433,20.5461],[105.85395,20.56658],[105.87163,20.63096],[105.89128,20.64689],[105.95285,20.64812],[105.99149,20.67815],[106.03865,20.65486],[106.07343,20.69727],[106.0345,20.72002],[106.02216,20.77873],[105.9787,20.81108],[105.99453,20.88379],[105.95883,20.92306],[105.98628,20.99199],[106.03031,21.01812],[106.04748,21.05107],[106.02862,21.09449],[105.96742,21.11092],[105.95943,21.14275],[105.96958,21.2498],[106.01103,21.27204],[105.96892,21.34958]]]},"properties":{"shapeName":"Hà Nội\t","shapeISO":"VN-HN","shapeID":"63759600B97268694287734","shapeGroup":"VNM","shapeType":"ADM1"}},
{"type":"Feature","geometry":{"type":"Polygon","coordinates":[[[105.18939,18.60138],[105.1608,18.58032],[105.12671,18.47541],[105.13248,18.44606],[105.17023,18.3983],[105.20432,18.38685],[105.22163,18.35351],[105.20956,18.31717],[105.33123,18.21807],[105.33962,18.18719],[105.41985,18.15131],[105.45551,18.20662],[105.50481,18.18519],[105.54676,18.09051],[105.58294,18.07505],[105.58714,18.02021],[105.64517,17.98467],[105.70723,17.97632],[105.74289,18.0247],[105.85878,18.0247],[105.85878,18.06857],[105.91017,18.08951],[105.98212,18.06201],[106.01165,18.02468],[106.06435,17.99595],[106.04488,17.95828],[106.07677,17.93561],[106.14993,17.91837],[106.23551,17.92795],[106.34056,17.98957],[106.45269,17.95698],[106.50939,17.96066],[106.43787,18.01827],[106.40543,18.10179],[106.36698,18.11016],[106.31586,18.14772],[106.23618,18.22276],[106.1449,18.27726],[106.09484,18.28361],[106.02524,18.34621],[105.93178,18.46709],[105.88177,18.50561],[105.77524,18.67751],[105.72924,18.6731],[105.68308,18.63128],[105.67704,18.58325],[105.60253,18.58388],[105.53172,18.56448],[105.4995,18.59979],[105.44446,18.61696],[105.38472,18.58675],[105.33236,18.59247],[105.25919,18.63541],[105.22228,18.59788],[105.18939,18.60138]]]},"properties":{"shapeName":"Hà Tĩnh","shapeISO":"VN-23","shapeID":"63759600B52412632417993","shapeGroup":"VNM","shapeType":"ADM1"}},
{"type":"Feature","geometry":{"type":"Polygon","coordinates":[[[106.38644,21.16576],[106.38996,21.10818],[106.3493,21.02603],[106.21516,21.0006],[106.19897,20.97762],[106.20942,20.95646],[106.18716,20.87477],[106.19965,20.81577],[106.25456,20.76913],[106.29857,20.69233],[106.33383,20.7095],[106.42274,20.72241],[106.48224,20.75735],[106.5409,20.75021],[106.58621,20.79303],[106.60052,20.90044],[106.63915,20.9049],[106.66052,20.97333],[106.70449,20.99768],[106.6948,21.05125],[106.73281,21.07906],[106.71492,21.09992],[106.64636,21.10062],[106.56811,21.13468],[106.60314,21.1743],[106.6114,21.26184],[106.51221,21.2726],[106.46177,21.23231],[106.43099,21.22621],[106.38644,21.16576]]]},"properties":{"shapeName":"Hải Dương","shapeISO":"VN-61","shapeID":"63759600B6612369570330","shapeGroup":"VNM","shapeType":"ADM1"}},
{"type":"Feature","geometry":{"type":"MultiPolygon","coordinates":[[[[107.01549,20.85184],[107.05208,20.89072],[107.02086,20.91236],[106.98428,20.88445],[107.01549,20.85184]]],[[[107.16927,20.80149],[107.20074,20.88971],[107.19339,20.90734],[107.10792,20.92694],[107.07068,20.90979],[107.07645,20.86619],[107.12889,20.79218],[107.16927,20.80149]]],[[[106.42274,20.72241],[106.46173,20.69037],[106.5069,20.63124],[106.5942,20.65153],[106.63558,20.63069],[106.67487,20.65808],[106.72996,20.64127],[106.76532,20.65424],[106.79689,20.69208],[106.78834,20.72092],[106.88876,20.78971],[106.86892,20.83393],[106.91471,20.87843],[106.88144,20.92662],[106.91294,20.98676],[106.90433,21.02837],[106.87686,21.05116],[106.73281,21.07906],[106.6948,21.05125],[106.70449,20.99768],[106.66052,20.97333],[106.63915,20.9049],[106.60052,20.90044],[106.58621,20.79303],[106.5409,20.75021],[106.48224,20.75735],[106.42274,20.72241]]]]},"properties":{"shapeName":"Hải Phòng","shapeISO":"VN-HP","shapeID":"63759600B57390768683549","shapeGroup":"VNM","shapeType":"ADM1"}},
{"type":"Feature","geometry":{"type":"Polygon","coordinates":[[[105.54956,9.61505],[105.558,9.62559],[105.64967,9.64722],[105.77791,9.70488],[105.84034,9.75532],[105.84637,9.81924],[105.87225,9.90582],[105.8305,9.90291],[105.76107,9.91849],[105.73471,9.89945],[105.65122,9.90984],[105.60728,9.94273],[105.57213,9.90291],[105.54877,9.91041],[105.50358,9.8475],[105.45525,9.81979],[105.40779,9.74791],[105.34364,9.69421],[105.39461,9.65002],[105.40252,9.63356],[105.54956,9.61505]]]},"properties":{"shapeName":"Hậu Giang","shapeISO":"VN-73","shapeID":"63759600B90584107995256","shapeGroup":"VNM","shapeType":"ADM1"}},
{"type":"Feature","geometry":{"type":"Polygon","coordinates":[[[107.00723,10.60597],[106.97032,10.54463],[106.93429,10.55846],[106.87981,10.6077],[106.81653,10.61461],[106.75326,10.64225],[106.72865,10.68888],[106.84729,10.75365],[106.87014,10.77868],[106.87014,10.82098],[106.8429,10.85119],[106.84114,10.88312],[106.81129,10.90977],[106.80686,10.88485],[106.73216,10.86327],[106.69174,10.87536],[106.63374,10.95647],[106.60034,11.03153],[106.52213,11.06258],[106.50367,11.12984],[106.4682,11.12723],[106.40897,10.98794],[106.41916,10.92869],[106.46747,10.89959],[106.51527,10.88634],[106.5344,10.84933],[106.52202,10.78082],[106.46859,10.69738],[106.52146,10.64543],[106.53552,10.61447],[106.62551,10.59733],[106.69525,10.59954],[106.7459,10.50892],[106.765,10.43641],[106.79143,10.40267],[106.82687,10.37667],[106.83418,10.33296],[106.8803,10.33074],[106.92023,10.36118],[106.93598,10.47955],[106.97535,10.49891],[107.01416,10.49393],[107.03103,10.54149],[107.00723,10.60597]]]},"properties":{"shapeName":"Ho Chi Minh","shapeISO":"VN-SG","shapeID":"63759600B80663352659785","shapeGroup":"VNM","shapeType":"ADM1"}},
{"type":"Feature","geometry":{"type":"Polygon","coordinates":[[[105.81433,20.5461],[105.78423,20.59462],[105.71381,20.6213],[105.71674,20.72405],[105.70103,20.74662],[105.69057,20.81234],[105.63557,20.83516],[105.62779,20.89407],[105.59506,20.92038],[105.58433,20.96999],[105.5135,21.02359],[105.47943,21.02785],[105.39962,21.00331],[105.38936,20.94199],[105.36836,20.92272],[105.31788,20.91722],[105.24346,20.93683],[105.21399,20.92857],[105.16093,20.94165],[105.11967,20.98637],[104.98224,21.04897],[104.93903,21.09116],[104.91022,21.03209],[105.00231,20.92296],[105.04734,20.8965],[105.04683,20.85679],[105.07061,20.80051],[105.02609,20.73712],[104.91326,20.76645],[104.88897,20.75888],[104.85558,20.65524],[104.9385,20.61426],[104.95816,20.56813],[105.0373,20.54528],[105.07781,20.56261],[105.13335,20.52794],[105.187,20.51136],[105.23315,20.45607],[105.34958,20.39246],[105.44482,20.3824],[105.49821,20.36806],[105.54019,20.33065],[105.59801,20.33713],[105.68196,20.28833],[105.74034,20.31957],[105.71605,20.38617],[105.76273,20.36932],[105.76944,20.42062],[105.7952,20.42615],[105.85556,20.3907],[105.88438,20.39809],[105.8722,20.46827],[105.81433,20.5461]]]},"properties":{"shapeName":"Hòa Bình","shapeISO":"VN-14","shapeID":"63759600B96462676465033","shapeGroup":"VNM","shapeType":"ADM1"}},
{"type":"Feature","geometry":{"type":"Polygon","coordinates":[[[106.03031,21.01812],[105.98628,20.99199],[105.95883,20.92306],[105.99453,20.88379],[105.9787,20.81108],[106.02216,20.77873],[106.0345,20.72002],[106.07343,20.69727],[106.11832,20.60874],[106.1673,20.61814],[106.1942,20.6515],[106.24073,20.65346],[106.29857,20.69233],[106.25456,20.76913],[106.19965,20.81577],[106.18716,20.87477],[106.20942,20.95646],[106.19897,20.97762],[106.15815,21.01664],[106.03031,21.01812]]]},"properties":{"shapeName":"Hưng Yên","shapeISO":"VN-66","shapeID":"63759600B38696477403674","shapeGroup":"VNM","shapeType":"ADM1"}},
{"type":"Feature","geometry":{"type":"MultiPolygon","coordinates":[[[[109.24694,12.2294],[109.28366,12.17592],[109.32037,12.18507],[109.32973,12.21533],[109.24694,12.2294]]],[[[108.68281,12.32113],[108.69428,12.30798],[108.70598,12.21028],[108.72908,12.16081],[108.7969,12.14346],[108.79285,12.11931],[108.82051,12.02036],[108.84962,12.012],[108.8724,11.93432],[109.03723,11.88015],[109.11664,11.80676],[109.18213,11.81296],[109.11663,11.8344],[109.12239,11.88266],[109.2131,11.95556],[109.20375,11.90309],[109.25342,11.85236],[109.27826,11.87914],[109.25954,11.9045],[109.27358,11.94218],[109.22786,12.0024],[109.19439,12.07809],[109.23038,12.14214],[109.20555,12.24699],[109.23862,12.30283],[109.21612,12.34129],[109.20543,12.40117],[109.27855,12.34843],[109.33704,12.40831],[109.29092,12.44512],[109.28305,12.47752],[109.25324,12.49784],[109.21331,12.59117],[109.21556,12.63288],[109.31961,12.75305],[109.34379,12.75908],[109.3601,12.71245],[109.30667,12.60873],[109.39498,12.54506],[109.44391,12.56153],[109.44503,12.62355],[109.46528,12.67349],[109.4141,12.70696],[109.37473,12.78925],[109.39211,12.84648],[109.28598,12.83523],[109.2371,12.81289],[109.19786,12.82687],[109.11281,12.75084],[109.01625,12.71407],[108.998,12.68425],[108.91328,12.68001],[108.90459,12.62745],[108.86894,12.60148],[108.89383,12.57334],[108.87659,12.5101],[108.87798,12.46748],[108.85323,12.45526],[108.76926,12.49897],[108.75035,12.47047],[108.71226,12.45879],[108.68139,12.3928],[108.69279,12.35777],[108.68281,12.32113]]]]},"properties":{"shapeName":"Khánh Hòa","shapeISO":"VN-34","shapeID":"63759600B80040926405936","shapeGroup":"VNM","shapeType":"ADM1"}},
{"type":"Feature","geometry":{"type":"MultiPolygon","coordinates":[[[[104.36252,9.76071],[104.33257,9.75163],[104.33879,9.70486],[104.39707,9.71348],[104.38855,9.76389],[104.36252,9.76071]]],[[[104.06496,10.36488],[104.05628,10.38939],[103.98541,10.44803],[103.94491,10.37113],[103.91173,10.36173],[103.83805,10.37611],[103.85998,10.32355],[103.94491,10.26268],[103.97472,10.19737],[103.99616,10.05396],[104.03772,10.03188],[104.04738,10.17117],[104.07287,10.24729],[104.0755,10.33635],[104.06496,10.36488]]],[[[104.77676,10.52435],[104.66765,10.54204],[104.59576,10.52995],[104.52106,10.41847],[104.45779,10.4323],[104.43143,10.41847],[104.43318,10.37698],[104.49822,10.37179],[104.56501,10.30263],[104.57995,10.22134],[104.59928,10.16512],[104.65377,10.15993],[104.70034,10.21183],[104.76538,10.23518],[104.81283,10.21183],[104.87259,10.11754],[104.91741,10.09764],[104.9965,10.10629],[105.07384,10.05178],[105.09581,10.0189],[105.1002,9.96956],[105.05275,9.95312],[104.97024,9.89387],[104.90838,9.85952],[104.88869,9.83126],[104.85438,9.67993],[104.84088,9.57235],[104.87575,9.5535],[104.91344,9.58954],[104.99162,9.59343],[105.05011,9.57291],[105.20422,9.45642],[105.26542,9.42556],[105.29003,9.51744],[105.31991,9.54691],[105.33309,9.61363],[105.37879,9.62057],[105.39461,9.65002],[105.34364,9.69421],[105.40779,9.74791],[105.45525,9.81979],[105.50358,9.8475],[105.54877,9.91041],[105.46315,9.98255],[105.44294,10.01197],[105.35506,10.09158],[105.33397,10.12533],[105.29354,10.14349],[105.26366,10.18155],[105.2151,10.20306],[105.05574,10.3147],[104.9275,10.35841],[104.85269,10.40101],[104.81951,10.43862],[104.77676,10.52435]]]]},"properties":{"shapeName":"Kiên Giang","shapeISO":"VN-47","shapeID":"63759600B18022923052532","shapeGroup":"VNM","shapeType":"ADM1"}},
{"type":"Feature","geometry":{"type":"Polygon","coordinates":[[[108.6311,14.61491],[108.6198,14.64513],[108.58042,14.65726],[108.61741,14.77902],[108.56132,14.8269],[108.47421,14.85458],[108.45046,14.89712],[108.3382,15.00227],[108.31556,15.04245],[108.2443,15.07737],[108.22123,15.03889],[108.22543,14.98368],[108.15201,14.98317],[108.03612,15.03078],[108.01304,15.05509],[108.05499,15.13154],[108.05313,15.15967],[107.97692,15.20316],[107.79666,15.22926],[107.76224,15.29645],[107.67949,15.3565],[107.6631,15.40233],[107.61721,15.40312],[107.60101,15.38104],[107.6296,15.33697],[107.6362,15.29926],[107.61934,15.26979],[107.63352,15.22279],[107.59832,15.19112],[107.62338,15.13987],[107.61204,15.04654],[107.58638,15.03041],[107.55059,15.04482],[107.48436,15.02522],[107.46526,15.00448],[107.49689,14.94338],[107.58877,14.88745],[107.59593,14.86785],[107.52016,14.79633],[107.55297,14.71151],[107.55834,14.63994],[107.52109,14.5838],[107.53233,14.54761],[107.50374,14.48538],[107.47977,14.40539],[107.44388,14.4139],[107.39424,14.32734],[107.40569,14.26665],[107.37755,14.1973],[107.334,14.14465],[107.32982,14.11167],[107.36383,14.08563],[107.36025,14.02254],[107.37696,14.0017],[107.43543,13.99302],[107.46825,13.97159],[107.52314,13.99475],[107.55178,14.03759],[107.59653,14.0428],[107.67111,14.10762],[107.68304,14.16953],[107.7081,14.22853],[107.77732,14.22506],[107.84951,14.24299],[107.8792,14.287],[107.91357,14.30144],[107.98154,14.26961],[108.02202,14.26998],[108.11252,14.32179],[108.12512,14.36211],[108.16042,14.38551],[108.2264,14.39687],[108.27528,14.41983],[108.3332,14.43166],[108.38326,14.49673],[108.44512,14.54959],[108.42717,14.58654],[108.45848,14.63163],[108.48483,14.59689],[108.53104,14.58728],[108.6311,14.61491]]]},"properties":{"shapeName":"Kon Tum","shapeISO":"VN-28","shapeID":"63759600B65226847193503","shapeGroup":"VNM","shapeType":"ADM1"}},
{"type":"Feature","geometry":{"type":"Polygon","coordinates":[[[103.50258,21.96357],[103.5195,22.00722],[103.56063,22.01592],[103.6514,21.98577],[103.68833,21.93931],[103.71565,21.85716],[103.71009,21.82147],[103.75006,21.79986],[103.80369,21.7336],[103.87655,21.6866],[103.9239,21.70103],[103.97622,21.74911],[103.95295,21.79563],[103.89628,21.85622],[103.89324,21.89144],[103.95345,21.90787],[103.98431,21.96893],[103.95357,22.10496],[103.90096,22.15545],[103.80349,22.28944],[103.77078,22.30981],[103.77783,22.38252],[103.73597,22.40647],[103.61452,22.40321],[103.55442,22.4716],[103.59348,22.52665],[103.5684,22.58126],[103.53731,22.58934],[103.48324,22.63238],[103.42139,22.72142],[103.43485,22.76289],[103.34529,22.8156],[103.32404,22.79881],[103.27294,22.67935],[103.17478,22.63079],[103.16062,22.59249],[103.17478,22.54858],[103.08776,22.50278],[103.06398,22.44293],[102.91826,22.4981],[102.8397,22.62093],[102.76113,22.64703],[102.69766,22.69692],[102.65168,22.69633],[102.56717,22.71216],[102.49593,22.77159],[102.46905,22.76293],[102.4548,22.7247],[102.39231,22.67183],[102.41983,22.63029],[102.32507,22.54148],[102.34932,22.49266],[102.39139,22.45551],[102.39325,22.40494],[102.45708,22.34956],[102.52133,22.25158],[102.56878,22.25139],[102.62318,22.21152],[102.62157,22.18873],[102.67791,22.17464],[102.68147,22.24779],[102.72857,22.23201],[102.74991,22.18807],[102.73872,22.13721],[102.77246,22.08015],[102.84467,22.05374],[102.93016,22.06905],[102.96088,22.02986],[103.05622,22.04946],[103.11894,22.07415],[103.18727,22.07295],[103.25236,22.03664],[103.32489,22.13565],[103.39613,22.13445],[103.41167,22.08135],[103.47838,22.01893],[103.46251,21.99821],[103.50258,21.96357]]]},"properties":{"shapeName":"Lai Châu","shapeISO":"VN-01","shapeID":"63759600B24004656938543","shapeGroup":"VNM","shapeType":"ADM1"}},
{"type":"Feature","geometry":{"type":"Polygon","coordinates":[[[107.31362,11.54642],[107.34654,11.54757],[107.38461,11.51722],[107.43543,11.50631],[107.46517,11.47924],[107.4348,11.43304],[107.48004,11.42931],[107.49016,11.39892],[107.53452,11.35712],[107.58096,11.39706],[107.61766,11.36884],[107.68378,11.34092],[107.76446,11.3828],[107.86696,11.37101],[108.02483,11.3282],[108.04145,11.25779],[108.06372,11.24528],[108.12467,11.28539],[108.19493,11.31101],[108.26464,11.36853],[108.30324,11.41195],[108.25768,11.46311],[108.26148,11.4935],[108.2909,11.51613],[108.35133,11.509],[108.40448,11.52202],[108.50319,11.52605],[108.54115,11.50993],[108.57646,11.55236],[108.55697,11.58215],[108.57184,11.61097],[108.65536,11.63422],[108.6889,11.65312],[108.69238,11.6903],[108.66834,11.76464],[108.62816,11.79933],[108.65188,11.83401],[108.67878,11.99498],[108.71168,12.05718],[108.69333,12.11286],[108.72908,12.16081],[108.70598,12.21028],[108.69428,12.30798],[108.68281,12.32113],[108.6522,12.28496],[108.61271,12.26703],[108.50121,12.2673],[108.47729,12.27681],[108.39832,12.22681],[108.33847,12.22182],[108.24115,12.17001],[108.12218,12.17884],[108.07996,12.11607],[107.99784,12.11012],[107.95527,12.06636],[107.98264,12.04937],[108.0326,11.97117],[108.0326,11.95035],[108.08343,11.90231],[108.09343,11.86745],[108.07605,11.83386],[108.00057,11.79281],[107.89364,11.8156],[107.88141,11.87275],[107.83469,11.87575],[107.77279,11.84746],[107.72108,11.8734],[107.70935,11.91421],[107.68242,11.91294],[107.65939,11.87935],[107.57119,11.80621],[107.50168,11.79686],[107.4591,11.76666],[107.39827,11.76751],[107.28389,11.7253],[107.26111,11.64196],[107.2899,11.60974],[107.29329,11.56007],[107.31362,11.54642]]]},"properties":{"shapeName":"Lâm Đồng","shapeISO":"VN-35","shapeID":"63759600B25056861299541","shapeGroup":"VNM","shapeType":"ADM1"}},
{"type":"Feature","geometry":{"type":"Polygon","coordinates":[[[107.10181,21.37252],[107.19797,21.40339],[107.26576,21.40133],[107.33982,21.42088],[107.30261,21.52168],[107.27866,21.55801],[107.32287,21.59056],[107.39135,21.61177],[107.38256,21.65324],[107.32913,21.72924],[107.24329,21.71178],[107.21013,21.74327],[107.15818,21.76585],[107.12429,21.80177],[107.05687,21.81409],[107.04213,21.85684],[107.08118,21.90026],[107.04987,21.9382],[107.00123,21.92931],[106.95555,21.93751],[106.93602,21.97715],[106.90618,21.98501],[106.83618,21.97681],[106.81333,22.00312],[106.7216,21.99628],[106.74444,22.09395],[106.70186,22.19387],[106.72025,22.25302],[106.68365,22.3276],[106.60038,22.34157],[106.5809,22.39524],[106.52019,22.37324],[106.47971,22.33393],[106.40432,22.3358],[106.36283,22.34703],[106.3431,22.37324],[106.25253,22.43077],[106.22521,22.42797],[106.19242,22.38438],[106.23601,22.32726],[106.22201,22.29079],[106.26106,22.23009],[106.24301,22.1332],[106.20285,22.11204],[106.1929,22.07483],[106.12253,22.05913],[106.138,21.96622],[106.1244,21.92797],[106.16932,21.90436],[106.14979,21.86846],[106.14464,21.77304],[106.20764,21.73505],[106.27838,21.71452],[106.2699,21.67138],[106.23306,21.60769],[106.2209,21.55253],[106.24264,21.50557],[106.32885,21.49049],[106.34875,21.46512],[106.39038,21.45381],[106.40659,21.4154],[106.46222,21.41951],[106.49833,21.46375],[106.53812,21.47575],[106.57607,21.52237],[106.58454,21.57],[106.62765,21.61591],[106.74075,21.61796],[106.75991,21.57823],[106.80376,21.56692],[106.82107,21.58919],[106.91097,21.56966],[106.91097,21.53574],[106.96918,21.46683],[107.05244,21.45929],[107.06166,21.39996],[107.10181,21.37252]]]},"properties":{"shapeName":"Lạng Sơn","shapeISO":"VN-09","shapeID":"63759600B58815535609509","shapeGroup":"VNM","shapeType":"ADM1"}},
{"type":"Feature","geometry":{"type":"Polygon","coordinates":[[[104.36176,22.69196],[104.33972,22.72022],[104.27237,22.74561],[104.25812,22.77726],[104.27302,22.82353],[104.22667,22.82959],[104.11991,22.81094],[104.04959,22.7363],[104.02682,22.67002],[104.04149,22.6406],[104.01923,22.56773],[104.01619,22.52334],[103.97825,22.50605],[103.87199,22.57287],[103.82494,22.61632],[103.77099,22.68764],[103.7082,22.72607],[103.64209,22.79544],[103.56613,22.70529],[103.5766,22.67292],[103.53731,22.58934],[103.5684,22.58126],[103.59348,22.52665],[103.55442,22.4716],[103.61452,22.40321],[103.73597,22.40647],[103.77783,22.38252],[103.77078,22.30981],[103.80349,22.28944],[103.90096,22.15545],[103.95357,22.10496],[103.98431,21.96893],[104.03036,21.90693],[104.07893,21.89472],[104.12042,21.90317],[104.20745,21.87406],[104.24893,21.88439],[104.26563,21.9135],[104.3223,21.91162],[104.37492,21.85716],[104.40426,21.86702],[104.45992,21.92242],[104.4331,22.00969],[104.39971,22.04346],[104.41944,22.09879],[104.41742,22.18456],[104.47054,22.163],[104.55049,22.10536],[104.59552,22.0866],[104.60784,22.15185],[104.62889,22.16744],[104.6263,22.22711],[104.58647,22.25049],[104.5768,22.34703],[104.51305,22.40037],[104.47257,22.42235],[104.45385,22.46538],[104.45992,22.50137],[104.42298,22.52801],[104.42906,22.57054],[104.47156,22.57521],[104.467,22.60838],[104.41337,22.65694],[104.38048,22.66068],[104.36176,22.69196]]]},"properties":{"shapeName":"Lào Cai","shapeISO":"VN-02","shapeID":"63759600B43481155123024","shapeGroup":"VNM","shapeType":"ADM1"}},
{"type":"Feature","geometry":{"type":"Polygon","coordinates":[[[105.92728,10.53856],[106.10188,10.52269],[106.09963,10.57245],[106.2768,10.56029],[106.34092,10.49449],[106.34823,10.44692],[106.43316,10.42811],[106.42078,10.37943],[106.51246,10.38939],[106.54227,10.38109],[106.63282,10.43254],[106.65138,10.4082],[106.69328,10.4313],[106.70257,10.4613],[106.7459,10.50892],[106.69525,10.59954],[106.62551,10.59733],[106.53552,10.61447],[106.52146,10.64543],[106.46859,10.69738],[106.52202,10.78082],[106.5344,10.84933],[106.51527,10.88634],[106.46747,10.89959],[106.41916,10.92869],[106.31297,10.99184],[106.26024,10.9651],[106.19872,10.97545],[106.14308,10.97383],[106.14863,10.91834],[106.18249,10.87152],[106.19447,10.79119],[106.1583,10.81178],[106.06845,10.81382],[106.01063,10.85613],[105.94566,10.88373],[105.9118,10.84799],[105.85609,10.87306],[105.83485,10.94057],[105.78986,10.99252],[105.78086,11.0275],[105.74882,11.03633],[105.66747,11.00312],[105.5656,10.97944],[105.50801,10.95294],[105.58612,10.88967],[105.61132,10.8324],[105.68848,10.7648],[105.76666,10.67362],[105.84315,10.63603],[105.90727,10.54038],[105.92728,10.53856]]]},"properties":{"shapeName":"Long An","shapeISO":"VN-41","shapeID":"63759600B22652371205312","shapeGroup":"VNM","shapeType":"ADM1"}},
{"type":"Feature","geometry":{"type":"Polygon","coordinates":[[[106.23194,20.4781],[106.19629,20.49217],[106.15605,20.46939],[106.11036,20.47057],[106.07557,20.43365],[106.02023,20.40065],[105.98418,20.40654],[105.93209,20.36579],[105.95568,20.35074],[106.00598,20.25796],[106.04539,20.23594],[106.09862,20.24459],[106.1112,20.2202],[106.16192,20.21666],[106.18036,20.15292],[106.14348,20.06593],[106.12252,20.04427],[106.10072,19.98007],[106.11078,19.9584],[106.1724,19.95919],[106.25121,20.04467],[106.32289,20.10018],[106.41134,20.19424],[106.49702,20.21697],[106.54183,20.19699],[106.58768,20.21117],[106.6101,20.25782],[106.59872,20.30278],[106.56686,20.32873],[106.53626,20.31536],[106.46416,20.31458],[106.44142,20.34555],[106.37832,20.37412],[106.3205,20.33621],[106.3244,20.40836],[106.26599,20.42045],[106.27185,20.4653],[106.23194,20.4781]]]},"properties":{"shapeName":"Nam Định","shapeISO":"VN-67","shapeID":"63759600B40468097531795","shapeGroup":"VNM","shapeType":"ADM1"}},
{"type":"Feature","geometry":{"type":"Polygon","coordinates":[[[105.72924,18.6731],[105.77242,18.6774],[105.74837,18.74616],[105.75696,18.77036],[105.72345,18.80331],[105.6955,18.86773],[105.65019,18.88837],[105.61462,18.93441],[105.60321,18.97059],[105.60916,19.03454],[105.64115,19.09699],[105.73135,19.10095],[105.7324,19.20349],[105.78064,19.24014],[105.80435,19.30695],[105.75447,19.3204],[105.67566,19.32198],[105.64212,19.36628],[105.54445,19.42203],[105.53188,19.45722],[105.46481,19.45287],[105.38013,19.47737],[105.35749,19.5323],[105.33192,19.54375],[105.29797,19.50741],[105.26802,19.55661],[105.27795,19.59756],[105.26821,19.66577],[105.22461,19.67643],[105.17263,19.71235],[105.13239,19.76916],[105.12652,19.84646],[105.19569,19.90126],[105.16844,19.94934],[105.10598,19.96392],[105.01418,19.97062],[104.95759,20.0301],[104.93327,20.03679],[104.90109,20.00581],[104.84538,19.97711],[104.82893,19.94746],[104.86014,19.86352],[104.85209,19.82848],[104.79537,19.80764],[104.73026,19.76595],[104.69032,19.72173],[104.64467,19.63008],[104.54164,19.62123],[104.49767,19.65252],[104.44867,19.66896],[104.43223,19.7015],[104.36376,19.6936],[104.25099,19.70245],[104.15092,19.64419],[104.07553,19.67615],[104.06651,19.61667],[104.12596,19.54579],[104.13718,19.48673],[104.11355,19.47093],[104.06737,19.40652],[103.97942,19.38027],[103.95825,19.34707],[103.88458,19.32202],[103.96801,19.25378],[104.01539,19.23477],[104.08553,19.23921],[104.10332,19.21797],[104.15635,19.20276],[104.22683,19.15299],[104.22314,19.11589],[104.29127,19.11399],[104.33523,19.07879],[104.39934,19.04834],[104.44949,18.98722],[104.49052,19.00327],[104.55088,18.95757],[104.58567,18.9088],[104.70789,18.83787],[104.753,18.79944],[104.86426,18.77708],[104.9141,18.78887],[104.96092,18.7427],[105.01741,18.74596],[105.07734,18.70487],[105.16086,18.6936],[105.19039,18.65481],[105.18939,18.60138],[105.22228,18.59788],[105.25919,18.63541],[105.33236,18.59247],[105.38472,18.58675],[105.44446,18.61696],[105.4995,18.59979],[105.53172,18.56448],[105.60253,18.58388],[105.67704,18.58325],[105.68308,18.63128],[105.72924,18.6731]]]},"properties":{"shapeName":"Nghệ An","shapeISO":"VN-22","shapeID":"63759600B83996903780984","shapeGroup":"VNM","shapeType":"ADM1"}},
{"type":"Feature","geometry":{"type":"Polygon","coordinates":[[[105.88438,20.39809],[105.85556,20.3907],[105.7952,20.42615],[105.76944,20.42062],[105.76273,20.36932],[105.71605,20.38617],[105.74034,20.31957],[105.68196,20.28833],[105.59801,20.33713],[105.54019,20.33065],[105.54526,20.30443],[105.66225,20.22768],[105.74944,20.15135],[105.8819,20.09625],[105.96951,20.05333],[106.07431,20.06593],[106.06173,20.01907],[106.03608,19.99883],[106.0567,19.93003],[106.09275,19.93673],[106.10072,19.98007],[106.12252,20.04427],[106.14348,20.06593],[106.18036,20.15292],[106.16192,20.21666],[106.1112,20.2202],[106.09862,20.24459],[106.04539,20.23594],[106.00598,20.25796],[105.95568,20.35074],[105.93209,20.36579],[105.88438,20.39809]]]},"properties":{"shapeName":"Ninh Bình","shapeISO":"VN-18","shapeID":"63759600B34339839848337","shapeGroup":"VNM","shapeType":"ADM1"}},
{"type":"Feature","geometry":{"type":"Polygon","coordinates":[[[108.85226,11.31352],[108.89136,11.29579],[108.9403,11.29772],[109.01049,11.34717],[109.0016,11.44263],[109.03596,11.57874],[109.09481,11.58153],[109.13657,11.56821],[109.18529,11.65901],[109.20332,11.70889],[109.23654,11.73212],[109.19383,11.77641],[109.18213,11.81296],[109.11664,11.80676],[109.03723,11.88015],[108.8724,11.93432],[108.84962,12.012],[108.82051,12.02036],[108.79285,12.11931],[108.7969,12.14346],[108.72908,12.16081],[108.69333,12.11286],[108.71168,12.05718],[108.67878,11.99498],[108.65188,11.83401],[108.62816,11.79933],[108.66834,11.76464],[108.69238,11.6903],[108.6889,11.65312],[108.65536,11.63422],[108.57184,11.61097],[108.55697,11.58215],[108.57646,11.55236],[108.64617,11.53709],[108.68621,11.45523],[108.74207,11.44796],[108.77964,11.35928],[108.84242,11.3462],[108.85226,11.31352]]]},"properties":{"shapeName":"Ninh Thuận","shapeISO":"VN-36","shapeID":"63759600B19155127097543","shapeGroup":"VNM","shapeType":"ADM1"}},
{"type":"Feature","geometry":{"type":"Polygon","coordinates":[[[105.49989,21.28019],[105.49289,21.32928],[105.44904,21.3581],[105.4531,21.41608],[105.38494,21.44695],[105.36632,21.52141],[105.29762,21.57514],[105.27036,21.65289],[105.21435,21.69672],[105.13697,21.70802],[105.11753,21.68923],[105.05665,21.68592],[105.03139,21.66034],[104.95465,21.64018],[104.93846,21.60165],[104.94137,21.56039],[104.9268,21.48087],[104.9608,21.43054],[104.92287,21.36027],[104.87268,21.31621],[104.90415,21.2322],[104.90314,21.13973],[104.93903,21.09116],[104.98224,21.04897],[105.11967,20.98637],[105.16093,20.94165],[105.21399,20.92857],[105.24346,20.93683],[105.31788,20.91722],[105.36836,20.92272],[105.38936,20.94199],[105.39962,21.00331],[105.35952,21.04003],[105.38383,21.08713],[105.36394,21.12356],[105.36209,21.18507],[105.41073,21.22148],[105.39967,21.27024],[105.4332,21.29564],[105.49989,21.28019]]]},"properties":{"shapeName":"Phú Thọ","shapeISO":"VN-68","shapeID":"63759600B45971409679814","shapeGroup":"VNM","shapeType":"ADM1"}},
{"type":"Feature","geometry":{"type":"Polygon","coordinates":[[[108.85371,13.56835],[108.79529,13.58617],[108.73915,13.5561],[108.72006,13.51897],[108.73533,13.48927],[108.79338,13.4811],[108.80789,13.37302],[108.83424,13.35407],[108.87099,13.29492],[108.87815,13.2624],[108.84175,13.16772],[108.76359,13.13576],[108.75882,13.05498],[108.6735,12.99627],[108.71421,12.95266],[108.76871,12.92574],[108.79307,12.86918],[108.84859,12.85713],[108.87409,12.81489],[108.98139,12.81123],[109.01625,12.71407],[109.11281,12.75084],[109.19786,12.82687],[109.2371,12.81289],[109.28598,12.83523],[109.39211,12.84648],[109.45858,12.89814],[109.41085,12.9722],[109.36159,13.03136],[109.30698,13.12026],[109.29667,13.22102],[109.31156,13.26749],[109.29122,13.30538],[109.29244,13.36816],[109.25529,13.36412],[109.22908,13.41574],[109.24359,13.47924],[109.28254,13.46328],[109.2665,13.40794],[109.315,13.41054],[109.33562,13.4811],[109.2833,13.54125],[109.30011,13.5728],[109.26956,13.58802],[109.23175,13.65037],[109.23232,13.67801],[109.19815,13.69516],[109.16913,13.67894],[109.09619,13.5947],[109.00684,13.53717],[108.94612,13.53531],[108.91443,13.55276],[108.86822,13.55016],[108.85371,13.56835]]]},"properties":{"shapeName":"Phú Yên","shapeISO":"VN-32","shapeID":"63759600B26645729855564","shapeGroup":"VNM","shapeType":"ADM1"}},
{"type":"Feature","geometry":{"type":"Polygon","coordinates":[[[105.64517,17.98467],[105.61927,17.88749],[105.67052,17.84508],[105.69254,17.78068],[105.74761,17.71675],[105.75495,17.67378],[105.78799,17.67478],[105.87609,17.62331],[105.90912,17.57332],[106.12839,17.32916],[106.25294,17.25014],[106.27588,17.28927],[106.30947,17.28692],[106.34061,17.23919],[106.31849,17.21727],[106.38738,17.11531],[106.43405,17.08273],[106.41832,17.03561],[106.46499,16.99248],[106.52482,16.97705],[106.5494,16.99218],[106.60235,16.98315],[106.6151,16.94431],[106.69598,16.95779],[106.75304,16.93436],[106.77387,16.97493],[106.80533,16.9995],[106.86145,17.08123],[106.95322,17.12183],[107.00144,17.16442],[106.86354,17.27462],[106.83896,17.30258],[106.75673,17.36345],[106.63692,17.49922],[106.51844,17.66847],[106.45376,17.80427],[106.44646,17.84456],[106.47258,17.90882],[106.50939,17.96066],[106.45269,17.95698],[106.34056,17.98957],[106.23551,17.92795],[106.14993,17.91837],[106.07677,17.93561],[106.04488,17.95828],[106.06435,17.99595],[106.01165,18.02468],[105.98212,18.06201],[105.91017,18.08951],[105.85878,18.06857],[105.85878,18.0247],[105.74289,18.0247],[105.70723,17.97632],[105.64517,17.98467]]]},"properties":{"shapeName":"Quảng Bình","shapeISO":"VN-24","shapeID":"63759600B63586366081005","shapeGroup":"VNM","shapeType":"ADM1"}},
{"type":"Feature","geometry":{"type":"Polygon","coordinates":[[[108.29227,15.97145],[108.29226,15.97147],[108.22507,15.95647],[108.17406,15.93291],[108.0925,15.94033],[108.05457,15.92097],[107.99181,15.93743],[108.01262,16.001],[107.96496,16.05067],[107.92536,16.02906],[107.89583,16.05325],[107.8194,16.05812],[107.78021,16.04176],[107.73196,15.9964],[107.70102,15.9969],[107.63599,16.03319],[107.61764,16.05839],[107.57202,16.04579],[107.55733,16.00749],[107.48024,16.03773],[107.47028,16.02463],[107.47815,15.99892],[107.42256,15.89807],[107.3633,15.89051],[107.22329,15.82998],[107.23325,15.79466],[107.21961,15.75277],[107.28202,15.70128],[107.28097,15.64574],[107.35019,15.60585],[107.35993,15.56657],[107.40663,15.49947],[107.47874,15.49552],[107.52708,15.45762],[107.54511,15.41339],[107.61721,15.40312],[107.6631,15.40233],[107.67949,15.3565],[107.76224,15.29645],[107.79666,15.22926],[107.97692,15.20316],[108.05313,15.15967],[108.05499,15.13154],[108.01304,15.05509],[108.03612,15.03078],[108.15201,14.98317],[108.22543,14.98368],[108.22123,15.03889],[108.2443,15.07737],[108.31556,15.04245],[108.32873,15.10218],[108.37069,15.18672],[108.356,15.27526],[108.38013,15.30359],[108.48239,15.31371],[108.57311,15.32989],[108.66173,15.3658],[108.70998,15.37237],[108.74669,15.39917],[108.67065,15.51138],[108.63971,15.51744],[108.56419,15.57453],[108.49927,15.6932],[108.42111,15.81609],[108.39763,15.88112],[108.30536,15.9498],[108.29227,15.97145]]]},"properties":{"shapeName":"Quảng Nam","shapeISO":"VN-27","shapeID":"63759600B74453713760270","shapeGroup":"VNM","shapeType":"ADM1"}},
{"type":"Feature","geometry":{"type":"Polygon","coordinates":[[[109.08875,14.65959],[109.09593,14.68035],[109.03567,14.77267],[109.00524,14.85055],[108.98793,14.87015],[108.92886,14.99295],[108.91335,15.05231],[108.91753,15.15024],[108.9044,15.18997],[108.96466,15.2343],[108.89545,15.26769],[108.88388,15.32697],[108.83767,15.36416],[108.82392,15.40871],[108.77259,15.38777],[108.74669,15.39917],[108.70998,15.37237],[108.66173,15.3658],[108.57311,15.32989],[108.48239,15.31371],[108.38013,15.30359],[108.356,15.27526],[108.37069,15.18672],[108.32873,15.10218],[108.31556,15.04245],[108.3382,15.00227],[108.45046,14.89712],[108.47421,14.85458],[108.56132,14.8269],[108.61741,14.77902],[108.58042,14.65726],[108.6198,14.64513],[108.6311,14.61491],[108.68722,14.56488],[108.75166,14.61165],[108.82087,14.62493],[108.83996,14.68612],[108.95631,14.71613],[109.02791,14.70228],[109.08875,14.65959]]]},"properties":{"shapeName":"Quảng Ngãi","shapeISO":"VN-29","shapeID":"63759600B52816170319692","shapeGroup":"VNM","shapeType":"ADM1"}},
{"type":"Feature","geometry":{"type":"MultiPolygon","coordinates":[[[[107.29932,20.82698],[107.30929,20.86864],[107.25265,20.87207],[107.26052,20.83727],[107.29932,20.82698]]],[[[107.84209,21.0464],[107.80275,21.05228],[107.8295,20.98913],[107.89925,21.04591],[107.84209,21.0464]]],[[[107.5279,20.90217],[107.61066,21.01388],[107.62623,21.05824],[107.62459,21.11864],[107.59755,21.11864],[107.50742,21.04754],[107.44596,21.01465],[107.31896,20.91748],[107.33207,20.86772],[107.36648,20.86312],[107.42056,20.88992],[107.44596,20.84551],[107.48857,20.82177],[107.51561,20.83939],[107.5279,20.90217]]],[[[107.55366,21.28407],[107.52167,21.28358],[107.48654,21.17898],[107.48234,21.12518],[107.54422,21.12224],[107.57674,21.16333],[107.64596,21.21614],[107.64963,21.27137],[107.55366,21.28407]]],[[[107.99993,21.39251],[107.97319,21.4013],[107.83527,21.37151],[107.66536,21.28603],[107.68424,21.28065],[107.78021,21.33195],[107.89662,21.36419],[107.94487,21.36321],[107.99993,21.39251]]],[[[106.6114,21.26184],[106.60314,21.1743],[106.56811,21.13468],[106.64636,21.10062],[106.71492,21.09992],[106.73281,21.07906],[106.87686,21.05116],[106.90433,21.02837],[106.91294,20.98676],[106.98923,20.9539],[107.02643,20.95385],[107.08307,20.98446],[107.10393,20.93784],[107.16504,20.91905],[107.20677,20.95872],[107.28353,20.9956],[107.36998,20.99351],[107.38265,21.03942],[107.46611,21.07906],[107.47506,21.19445],[107.48772,21.23474],[107.46462,21.30974],[107.55852,21.32502],[107.63751,21.31946],[107.70086,21.38679],[107.76346,21.41524],[107.83425,21.50678],[107.88791,21.53036],[107.93411,21.52342],[107.94827,21.49014],[107.92517,21.45894],[107.92666,21.4194],[107.96914,21.42703],[108.03248,21.47697],[108.02801,21.54214],[107.96169,21.53867],[107.87524,21.62807],[107.77687,21.64746],[107.70086,21.61006],[107.59951,21.60451],[107.5235,21.61006],[107.48474,21.65578],[107.45419,21.65231],[107.39135,21.61177],[107.32287,21.59056],[107.27866,21.55801],[107.30261,21.52168],[107.33982,21.42088],[107.26576,21.40133],[107.19797,21.40339],[107.10181,21.37252],[107.09084,21.33951],[107.04641,21.33482],[107.06066,21.27429],[107.01791,21.22584],[106.91059,21.23131],[106.88921,21.19653],[106.6507,21.23639],[106.6114,21.26184]]]]},"properties":{"shapeName":"Quảng Ninh","shapeISO":"VN-13","shapeID":"63759600B48704001246073","shapeGroup":"VNM","shapeType":"ADM1"}},
{"type":"Feature","geometry":{"type":"Polygon","coordinates":[[[106.5494,16.99218],[106.54827,16.92619],[106.51992,16.91514],[106.55386,16.86212],[106.55402,16.7069],[106.5906,16.65997],[106.58825,16.62074],[106.67014,16.56799],[106.649,16.52906],[106.68122,16.45054],[106.74264,16.42028],[106.81278,16.46759],[106.84598,16.54879],[106.9044,16.51234],[106.89882,16.40914],[106.97271,16.34628],[106.97078,16.31619],[107.05176,16.3032],[107.09944,16.3065],[107.11517,16.37456],[107.16183,16.40482],[107.12994,16.49045],[107.07557,16.51361],[107.08128,16.54418],[107.16787,16.57732],[107.21264,16.58441],[107.27536,16.57123],[107.32412,16.61199],[107.31273,16.63669],[107.36794,16.72434],[107.38899,16.74203],[107.25043,16.86724],[107.19203,16.91188],[107.10846,17.02488],[107.11249,17.0868],[107.00144,17.16442],[106.95322,17.12183],[106.86145,17.08123],[106.80533,16.9995],[106.77387,16.97493],[106.75304,16.93436],[106.69598,16.95779],[106.6151,16.94431],[106.60235,16.98315],[106.5494,16.99218]]]},"properties":{"shapeName":"Quảng Trị","shapeISO":"VN-25","shapeID":"63759600B21465540527765","shapeGroup":"VNM","shapeType":"ADM1"}},
{"type":"Feature","geometry":{"type":"Polygon","coordinates":[[[105.83762,9.26228],[106.10413,9.33323],[106.18978,9.3493],[106.20525,9.37346],[106.20561,9.43205],[106.22217,9.47004],[106.27041,9.49419],[106.29633,9.55951],[106.18402,9.67166],[106.08711,9.78602],[105.9799,9.88646],[105.92098,9.93287],[105.9028,9.94141],[105.87225,9.90582],[105.84637,9.81924],[105.84034,9.75532],[105.77791,9.70488],[105.64967,9.64722],[105.558,9.62559],[105.54956,9.61505],[105.54956,9.46308],[105.61255,9.44477],[105.66655,9.40759],[105.70029,9.39816],[105.77566,9.42368],[105.79253,9.38984],[105.85047,9.41037],[105.85328,9.37097],[105.82403,9.346],[105.83762,9.26228]]]},"properties":{"shapeName":"Sóc Trăng","shapeISO":"VN-52","shapeID":"63759600B58335636470412","shapeGroup":"VNM","shapeType":"ADM1"}},
{"type":"Feature","geometry":{"type":"Polygon","coordinates":[[[103.21729,20.89601],[103.22892,20.85395],[103.2883,20.83674],[103.39678,20.78649],[103.46348,20.82675],[103.51028,20.75557],[103.59276,20.74627],[103.67234,20.69335],[103.6883,20.66543],[103.73534,20.67144],[103.73369,20.73542],[103.78943,20.75267],[103.77824,20.80808],[103.81161,20.86309],[103.85886,20.86579],[103.92751,20.89998],[104.0402,20.91177],[104.05477,20.94776],[104.0931,20.97211],[104.23173,20.93383],[104.24691,20.90784],[104.30408,20.90453],[104.38504,20.80666],[104.4751,20.76787],[104.48319,20.72907],[104.56465,20.68175],[104.61626,20.67843],[104.63751,20.65997],[104.63498,20.61215],[104.69772,20.59368],[104.73466,20.56526],[104.77513,20.57094],[104.85558,20.65524],[104.88897,20.75888],[104.91326,20.76645],[105.02609,20.73712],[105.07061,20.80051],[105.04683,20.85679],[105.04734,20.8965],[105.00231,20.92296],[104.91022,21.03209],[104.93903,21.09116],[104.90314,21.13973],[104.90415,21.2322],[104.87268,21.31621],[104.79588,21.32507],[104.76147,21.37455],[104.71442,21.35948],[104.63751,21.38398],[104.5854,21.41507],[104.51355,21.35052],[104.48674,21.34298],[104.43108,21.35806],[104.40072,21.38775],[104.32736,21.41413],[104.29953,21.47299],[104.33141,21.58407],[104.35772,21.625],[104.31066,21.65321],[104.25349,21.66262],[104.21048,21.63393],[104.07582,21.6468],[104.01656,21.66937],[103.96054,21.66787],[103.9239,21.70103],[103.87655,21.6866],[103.80369,21.7336],[103.75006,21.79986],[103.71009,21.82147],[103.71565,21.85716],[103.68833,21.93931],[103.6514,21.98577],[103.56063,22.01592],[103.5195,22.00722],[103.50258,21.96357],[103.48645,21.89707],[103.5158,21.86608],[103.54464,21.8008],[103.54464,21.77308],[103.59592,21.70066],[103.60046,21.67118],[103.56937,21.63536],[103.52857,21.53118],[103.45895,21.49111],[103.45733,21.45254],[103.4324,21.42149],[103.33752,21.41637],[103.38324,21.32979],[103.42422,21.3147],[103.43839,21.28595],[103.43788,21.18597],[103.39437,21.12227],[103.41865,21.06798],[103.38324,21.05807],[103.34428,21.08639],[103.29419,21.09725],[103.2785,21.04768],[103.29722,20.98344],[103.26231,20.89886],[103.21729,20.89601]]]},"properties":{"shapeName":"Sơn La","shapeISO":"VN-05","shapeID":"63759600B3920147428024","shapeGroup":"VNM","shapeType":"ADM1"}},
{"type":"Feature","geometry":{"type":"Polygon","coordinates":[[[106.44641,11.47268],[106.43239,11.51643],[106.47955,11.52348],[106.48747,11.58061],[106.46011,11.61975],[106.44744,11.66808],[106.38361,11.69342],[106.30211,11.68004],[106.25711,11.72355],[106.18624,11.74833],[106.1705,11.73456],[106.11031,11.74668],[106.07488,11.77476],[106.01132,11.75879],[106.01751,11.72961],[105.98433,11.69161],[105.96633,11.64699],[105.93933,11.64368],[105.86509,11.67618],[105.81166,11.61779],[105.81616,11.57261],[105.8814,11.5412],[105.87093,11.3169],[105.91047,11.23933],[106.01066,11.1902],[106.03263,11.1376],[106.10996,11.07896],[106.15654,11.09794],[106.19872,10.97545],[106.26024,10.9651],[106.31297,10.99184],[106.41916,10.92869],[106.40897,10.98794],[106.4682,11.12723],[106.42771,11.15148],[106.38164,11.22034],[106.36292,11.2793],[106.37073,11.34606],[106.39885,11.41112],[106.44641,11.47268]]]},"properties":{"shapeName":"Tây Ninh","shapeISO":"VN-37","shapeID":"63759600B24834630697040","shapeGroup":"VNM","shapeType":"ADM1"}},
{"type":"Feature","geometry":{"type":"Polygon","coordinates":[[[106.23194,20.4781],[106.27185,20.4653],[106.26599,20.42045],[106.3244,20.40836],[106.3205,20.33621],[106.37832,20.37412],[106.44142,20.34555],[106.46416,20.31458],[106.53626,20.31536],[106.56686,20.32873],[106.59872,20.30278],[106.62167,20.35361],[106.61282,20.41341],[106.62717,20.44402],[106.62198,20.49349],[106.59329,20.55524],[106.63558,20.63069],[106.5942,20.65153],[106.5069,20.63124],[106.46173,20.69037],[106.42274,20.72241],[106.33383,20.7095],[106.29857,20.69233],[106.24073,20.65346],[106.1942,20.6515],[106.1673,20.61814],[106.22438,20.54124],[106.23194,20.4781]]]},"properties":{"shapeName":"Thái Bình","shapeISO":"VN-20","shapeID":"63759600B57830284065529","shapeGroup":"VNM","shapeType":"ADM1"}},
{"type":"Feature","geometry":{"type":"Polygon","coordinates":[[[106.23306,21.60769],[106.2699,21.67138],[106.27838,21.71452],[106.20764,21.73505],[106.14464,21.77304],[106.14979,21.86846],[106.16932,21.90436],[106.1244,21.92797],[106.05658,21.95939],[106.01458,21.93888],[105.97811,21.90231],[105.91363,21.86368],[105.83921,21.84487],[105.78837,21.81854],[105.78509,21.92398],[105.79476,21.96182],[105.77095,22.00773],[105.73346,22.01473],[105.68889,22.04533],[105.60518,22.00752],[105.57319,21.96437],[105.56326,21.90334],[105.52242,21.81654],[105.53869,21.76158],[105.51794,21.66214],[105.58205,21.58508],[105.65989,21.54725],[105.70879,21.48741],[105.81637,21.42706],[105.85321,21.39893],[105.91768,21.38967],[105.96892,21.34958],[106.02379,21.4322],[106.09527,21.41299],[106.11221,21.47644],[106.11148,21.59707],[106.14095,21.61728],[106.23306,21.60769]]]},"properties":{"shapeName":"Thái Nguyên","shapeISO":"VN-69","shapeID":"63759600B68663063324919","shapeGroup":"VNM","shapeType":"ADM1"}},
{"type":"Feature","geometry":{"type":"Polygon","coordinates":[[[104.85558,20.65524],[104.77513,20.57094],[104.73466,20.56526],[104.69772,20.59368],[104.63498,20.61215],[104.58116,20.58951],[104.53337,20.55302],[104.39084,20.48078],[104.38162,20.45093],[104.41138,20.4034],[104.43947,20.38454],[104.51492,20.38297],[104.54385,20.41636],[104.59667,20.42186],[104.63775,20.47175],[104.71027,20.41322],[104.62173,20.36656],[104.61583,20.28404],[104.62924,20.26013],[104.68988,20.23823],[104.77626,20.22036],[104.8774,20.17504],[104.92363,20.17693],[104.98106,20.09546],[104.93327,20.03679],[104.95759,20.0301],[105.01418,19.97062],[105.10598,19.96392],[105.16844,19.94934],[105.19569,19.90126],[105.12652,19.84646],[105.13239,19.76916],[105.17263,19.71235],[105.22461,19.67643],[105.26821,19.66577],[105.27795,19.59756],[105.26802,19.55661],[105.29797,19.50741],[105.33192,19.54375],[105.35749,19.5323],[105.38013,19.47737],[105.46481,19.45287],[105.53188,19.45722],[105.54445,19.42203],[105.64212,19.36628],[105.67566,19.32198],[105.75447,19.3204],[105.80435,19.30695],[105.7989,19.36035],[105.77333,19.40859],[105.801,19.45445],[105.80351,19.52859],[105.82316,19.57612],[105.84281,19.67051],[105.8867,19.73032],[105.9273,19.75129],[105.94368,19.84557],[105.96784,19.92491],[106.02023,19.94422],[106.03608,19.99883],[106.06173,20.01907],[106.07431,20.06593],[105.96951,20.05333],[105.8819,20.09625],[105.74944,20.15135],[105.66225,20.22768],[105.54526,20.30443],[105.54019,20.33065],[105.49821,20.36806],[105.44482,20.3824],[105.34958,20.39246],[105.23315,20.45607],[105.187,20.51136],[105.13335,20.52794],[105.07781,20.56261],[105.0373,20.54528],[104.95816,20.56813],[104.9385,20.61426],[104.85558,20.65524]]]},"properties":{"shapeName":"Thanh Hóa","shapeISO":"VN-21","shapeID":"63759600B30623332474263","shapeGroup":"VNM","shapeType":"ADM1"}},
{"type":"Feature","geometry":{"type":"Polygon","coordinates":[[[108.15795,16.20156],[108.0853,16.23816],[108.03884,16.30723],[107.98232,16.31616],[107.8774,16.38527],[107.74236,16.50004],[107.72449,16.47593],[107.67798,16.51858],[107.58402,16.57841],[107.58565,16.59939],[107.47605,16.67024],[107.38899,16.74203],[107.36794,16.72434],[107.31273,16.63669],[107.32412,16.61199],[107.27536,16.57123],[107.21264,16.58441],[107.16787,16.57732],[107.08128,16.54418],[107.07557,16.51361],[107.12994,16.49045],[107.16183,16.40482],[107.11517,16.37456],[107.09944,16.3065],[107.16818,16.25681],[107.15249,16.21153],[107.17714,16.16973],[107.20808,16.14858],[107.28412,16.12793],[107.35334,16.05739],[107.44563,16.08611],[107.47133,16.07905],[107.47028,16.02463],[107.48024,16.03773],[107.55733,16.00749],[107.57202,16.04579],[107.61764,16.05839],[107.63599,16.03319],[107.70102,15.9969],[107.73196,15.9964],[107.78021,16.04176],[107.8194,16.05812],[107.86149,16.10022],[107.88718,16.1924],[107.97161,16.1934],[107.99679,16.2065],[108.04346,16.18081],[108.11901,16.18545],[108.15795,16.20156]]]},"properties":{"shapeName":"Thừa Thiên Huế","shapeISO":"VN-26","shapeID":"63759600B73452440048702","shapeGroup":"VNM","shapeType":"ADM1"}},
{"type":"Feature","geometry":{"type":"Polygon","coordinates":[[[106.66332,10.25425],[106.75544,10.23667],[106.783,10.26489],[106.77006,10.31857],[106.81393,10.35122],[106.79143,10.40267],[106.765,10.43641],[106.7459,10.50892],[106.70257,10.4613],[106.69328,10.4313],[106.65138,10.4082],[106.63282,10.43254],[106.54227,10.38109],[106.51246,10.38939],[106.42078,10.37943],[106.43316,10.42811],[106.34823,10.44692],[106.34092,10.49449],[106.2768,10.56029],[106.09963,10.57245],[106.10188,10.52269],[105.92728,10.53856],[105.92631,10.49346],[105.87839,10.45834],[105.82693,10.39475],[105.80462,10.35226],[105.83377,10.31082],[105.89474,10.27769],[105.93168,10.28497],[105.97992,10.32428],[106.03305,10.29722],[106.07495,10.28249],[106.1743,10.29312],[106.20537,10.31082],[106.31673,10.31968],[106.3921,10.31359],[106.44497,10.29201],[106.52427,10.27319],[106.66332,10.25425]]]},"properties":{"shapeName":"Tiền Giang","shapeISO":"VN-46","shapeID":"63759600B12588044805894","shapeGroup":"VNM","shapeType":"ADM1"}},
{"type":"Feature","geometry":{"type":"Polygon","coordinates":[[[106.25795,10.08995],[106.21968,10.04233],[106.12044,10.04178],[106.09513,10.02184],[106.09288,9.98473],[106.02482,9.97697],[105.94179,9.93192],[105.92098,9.93287],[105.9799,9.88646],[106.08711,9.78602],[106.30506,9.61103],[106.39821,9.54951],[106.48873,9.54778],[106.57222,9.59544],[106.59507,9.65609],[106.54673,9.76956],[106.5617,9.83868],[106.50965,9.89941],[106.42135,9.95703],[106.35048,9.98971],[106.28073,10.05618],[106.25795,10.08995]]]},"properties":{"shapeName":"Trà Vinh","shapeISO":"VN-51","shapeID":"63759600B34771484427393","shapeGroup":"VNM","shapeType":"ADM1"}},
{"type":"Feature","geometry":{"type":"Polygon","coordinates":[[[105.57319,21.96437],[105.521,22.01101],[105.47373,22.09463],[105.49804,22.14071],[105.43983,22.21168],[105.44057,22.24408],[105.51278,22.35622],[105.51683,22.3971],[105.59199,22.49551],[105.58463,22.54316],[105.55257,22.5731],[105.53104,22.63266],[105.50153,22.63625],[105.44958,22.60791],[105.3666,22.64247],[105.28615,22.61818],[105.24972,22.65694],[105.15511,22.68636],[105.15966,22.63033],[105.11969,22.57661],[105.13274,22.54389],[105.10911,22.49303],[105.11429,22.45922],[105.08579,22.36013],[105.04279,22.28572],[105.00737,22.27027],[104.99219,22.3124],[104.90921,22.31474],[104.89701,22.18963],[104.84887,22.18551],[104.88891,22.07505],[104.94137,22.05614],[104.9663,22.03213],[105.01747,22.03964],[105.022,21.9826],[105.01002,21.95437],[105.04726,21.93064],[105.07608,21.86815],[105.13145,21.82066],[105.10943,21.73225],[105.13697,21.70802],[105.21435,21.69672],[105.27036,21.65289],[105.29762,21.57514],[105.36632,21.52141],[105.4052,21.53711],[105.45568,21.52203],[105.52383,21.53813],[105.58205,21.58508],[105.51794,21.66214],[105.53869,21.76158],[105.52242,21.81654],[105.56326,21.90334],[105.57319,21.96437]]]},"properties":{"shapeName":"Tuyên Quang","shapeISO":"VN-07","shapeID":"63759600B31607366287554","shapeGroup":"VNM","shapeType":"ADM1"}},
{"type":"Feature","geometry":{"type":"Polygon","coordinates":[[[106.21305,10.14962],[106.15968,10.19498],[106.13204,10.22559],[106.03666,10.25325],[106.03305,10.29722],[105.97992,10.32428],[105.93168,10.28497],[105.89474,10.27769],[105.91121,10.21286],[105.8156,10.17578],[105.76498,10.2184],[105.71895,10.21838],[105.68499,10.1393],[105.79703,10.05285],[105.81897,10.01741],[105.9028,9.94141],[105.92098,9.93287],[105.94179,9.93192],[106.02482,9.97697],[106.09288,9.98473],[106.09513,10.02184],[106.12044,10.04178],[106.21968,10.04233],[106.25795,10.08995],[106.21305,10.14962]]]},"properties":{"shapeName":"Vĩnh Long","shapeISO":"VN-49","shapeID":"63759600B66868150968055","shapeGroup":"VNM","shapeType":"ADM1"}},
{"type":"Feature","geometry":{"type":"Polygon","coordinates":[[[105.85321,21.39893],[105.81637,21.42706],[105.70879,21.48741],[105.65989,21.54725],[105.58205,21.58508],[105.52383,21.53813],[105.45568,21.52203],[105.4052,21.53711],[105.36632,21.52141],[105.38494,21.44695],[105.4531,21.41608],[105.44904,21.3581],[105.49289,21.32928],[105.49989,21.28019],[105.52641,21.18507],[105.58389,21.15655],[105.62847,21.16205],[105.66752,21.18713],[105.83516,21.14006],[105.8591,21.21117],[105.80458,21.2517],[105.79242,21.28946],[105.85284,21.35879],[105.85321,21.39893]]]},"properties":{"shapeName":"Vĩnh Phúc","shapeISO":"VN-70","shapeID":"63759600B34367175145761","shapeGroup":"VNM","shapeType":"ADM1"}},
{"type":"Feature","geometry":{"type":"Polygon","coordinates":[[[104.58647,22.25049],[104.6263,22.22711],[104.62889,22.16744],[104.60784,22.15185],[104.59552,22.0866],[104.55049,22.10536],[104.47054,22.163],[104.41742,22.18456],[104.41944,22.09879],[104.39971,22.04346],[104.4331,22.00969],[104.45992,21.92242],[104.40426,21.86702],[104.37492,21.85716],[104.3223,21.91162],[104.26563,21.9135],[104.24893,21.88439],[104.20745,21.87406],[104.12042,21.90317],[104.07893,21.89472],[104.03036,21.90693],[103.98431,21.96893],[103.95345,21.90787],[103.89324,21.89144],[103.89628,21.85622],[103.95295,21.79563],[103.97622,21.74911],[103.9239,21.70103],[103.96054,21.66787],[104.01656,21.66937],[104.07582,21.6468],[104.21048,21.63393],[104.25349,21.66262],[104.31066,21.65321],[104.35772,21.625],[104.33141,21.58407],[104.29953,21.47299],[104.32736,21.41413],[104.40072,21.38775],[104.43108,21.35806],[104.48674,21.34298],[104.51355,21.35052],[104.5854,21.41507],[104.63751,21.38398],[104.71442,21.35948],[104.76147,21.37455],[104.79588,21.32507],[104.87268,21.31621],[104.92287,21.36027],[104.9608,21.43054],[104.9268,21.48087],[104.94137,21.56039],[104.93846,21.60165],[104.95465,21.64018],[105.03139,21.66034],[105.05665,21.68592],[105.11753,21.68923],[105.13697,21.70802],[105.10943,21.73225],[105.13145,21.82066],[105.07608,21.86815],[105.04726,21.93064],[105.01002,21.95437],[105.022,21.9826],[105.01747,22.03964],[104.9663,22.03213],[104.94137,22.05614],[104.88891,22.07505],[104.84887,22.18551],[104.76627,22.16729],[104.72575,22.19959],[104.72015,22.25445],[104.62399,22.27037],[104.58647,22.25049]]]},"properties":{"shapeName":"Yên Bái","shapeISO":"VN-06","shapeID":"63759600B52601599488063","shapeGroup":"VNM","shapeType":"ADM1"}}
]}